address,yearbuilt,numunits,stories,longitude,latitude,grandcentralwalkingdist,centralparkwalkingdist,closest_pre,closest_post,zipcode,group
1 east 62nd street,1910,12,6,-73.971031,40.76598,1.0097307,0.087613553,0.29390931,0.29390931,10065,Madison Ave
1 east 66th street,1949,106,18,-73.969696,40.768723,1.2116768,0.072079234,0.346726,0.346726,10065,Madison Ave
1 east end avenue,1929,33,14,-73.9478,40.77047,2.4767916,0.98673993,0.76615256,0.61391628,10075,York Ave
1 gracie square,1929,22,14,-73.945511,40.773418,2.7004859,1.0289932,0.75869614,0.46540818,10028,York Ave
10 east 68th street,1920,5,6,-73.96814,40.76947,1.2899698,0.10811885,0.22928654,0.22928654,10065,Madison Ave
10 east 70th street,1962,46,15,-73.967117,40.77066,1.3757192,0.11308984,0.31503597,0.31503597,10021,Madison Ave
10 east 81st street,1920,8,5,-73.962082,40.777901,1.9567027,0.14415847,0.43744642,0.43744642,10028,Madison Ave
10 east 85th street,1925,36,9,-73.960167,40.78043,2.1580274,0.065865509,0.28086048,0.28086048,10028,Madison Ave
10 east 95th street,1920,10,5,-73.955521,40.786781,2.6582325,0.11433259,0.27899635,0.27899635,10128,Madison Ave
10 east end avenue,1957,198,20,-73.948189,40.771091,2.4830055,0.99295366,0.77174497,0.60770255,10075,York Ave
10 gracie square,1930,43,15,-73.944847,40.77314,2.6600966,1.0693824,0.79908532,0.50579739,10028,York Ave
1000 park avenue,1916,66,13,-73.958252,40.77916,2.0567439,0.241714,0.17398436,0.17398436,10028,Madison Ave
1001 fifth avenue,1978,68,23,-73.962303,40.778648,2.0343742,0.1298669,0.49399132,0.49399132,10028,Madison Ave
1001 park avenue,1928,31,14,-73.957787,40.77895,2.0362384,0.25538421,0.16466378,0.16466378,10028,Lexington Ave
1003 lexington avenue,1924,15,15,-73.961853,40.77058,1.4614687,0.46292269,0.23052928,0.23052928,10021,Lexington Ave
1010 fifth avenue,1925,70,14,-73.961967,40.778919,2.0157332,0.16528516,0.43806779,0.43806779,10028,Madison Ave
1016 fifth avenue,1929,56,15,-73.961456,40.779308,2.0934048,0.13048828,0.43558228,0.43558228,10028,Madison Ave
1020 fifth avenue,1925,14,14,-73.961533,40.77956,2.1126673,0.11060435,0.41569835,0.41569835,10028,Madison Ave
1020 park avenue,1962,52,21,-73.957718,40.7799,2.1039681,0.22058733,0.12676004,0.12676004,10028,Madison Ave
1021 park avenue,1929,28,14,-73.957253,40.779411,2.0815988,0.22742242,0.11930356,0.11930356,10028,Lexington Ave
1025 fifth avenue,1955,160,13,-73.961502,40.779789,2.1263375,0.096934147,0.40202817,0.40202817,10028,Madison Ave
1025 park avenue,1924,10,5,-73.957283,40.77964,2.0921619,0.23798576,0.1093616,0.1093616,10028,Lexington Ave
103 east 75th street,1920,26,10,-73.961647,40.77285,1.5987921,0.30385128,0.16466378,0.16466378,10021,Lexington Ave
103 east 84th street,1917,31,9,-73.957581,40.778728,2.05053,0.2963948,0.15782867,0.15782867,10028,Lexington Ave
1035 fifth avenue,1928,81,15,-73.960907,40.78056,2.1897175,0.0341755,0.33864814,0.33864814,10028,Madison Ave
1035 park avenue,1926,29,15,-73.957138,40.77985,2.1095605,0.25538421,0.091341794,0.091341794,10028,Lexington Ave
1036 park avenue,1958,75,20,-73.957603,40.780071,2.1275802,0.24419948,0.10314787,0.10314787,10028,Madison Ave
104 east 98th street,1910,,,-73.951118,40.787613,2.7545455,0.29577342,0.18081947,0.18081947,10029,Lexington Ave
1040 fifth avenue,1930,28,17,-73.96048,40.78093,2.2214077,0.039767854,0.30695814,0.30695814,10028,Madison Ave
1040 park avenue,1925,88,14,-73.957253,40.780529,2.1642413,0.24792773,0.10563336,0.10563336,10028,Madison Ave
1045 fifth avenue,1967,14,15,-73.96048,40.781151,2.2344563,0.052816682,0.29390931,0.29390931,10028,Madison Ave
1045 park avenue,1923,38,15,-73.95681,40.780312,2.1424932,0.25538421,0.090099044,0.090099044,10028,Lexington Ave
1049 fifth avenue,1928,66,22,-73.959923,40.781151,2.2245145,0.075807475,0.23860712,0.23860712,10028,Madison Ave
1049 park avenue,1924,36,13,-73.956627,40.78054,2.1617558,0.27464676,0.10998297,0.10998297,10028,Lexington Ave
105 east 100 street,1910,,,-73.950249,40.788963,2.8477511,0.32870618,0.2323934,0.2323934,10029,Lexington Ave
105 east 75th street,1920,26,,-73.962029,40.772972,1.5776653,0.28210321,0.18579045,0.18579045,10021,Lexington Ave
1050 fifth avenue,1960,90,20,-73.960136,40.781609,2.2748456,0.060273156,0.29080245,0.29080245,10028,Madison Ave
1050 park avenue,1923,60,14,-73.957108,40.780731,2.1866107,0.27029714,0.12800278,0.12800278,10028,Madison Ave
1055 park avenue,2008,6,12,-73.956528,40.780651,2.1716976,0.28521007,0.11992494,0.11992494,10028,Lexington Ave
1056 fifth avenue,1951,77,19,-73.959892,40.78196,2.2897584,0.075807475,0.30571538,0.30571538,10028,Madison Ave
106 east 85th street,1916,20,8,-73.957108,40.77914,2.1058321,0.25165597,0.1025265,0.1025265,10028,Lexington Ave
1060 fifth avenue,1928,44,14,-73.959473,40.782131,2.3239341,0.10998297,0.33926952,0.33926952,10128,Madison Ave
1060 park avenue,1924,88,14,-73.956886,40.781052,2.2114656,0.29515204,0.15161495,0.15161495,10128,Madison Ave
1065 lexington avenue,1925,27,11,-73.960472,40.772572,1.613705,0.34051225,0.090720423,0.090720423,10021,Lexington Ave
1065 park avenue,1973,106,30,-73.956322,40.78091,2.1915817,0.30447266,0.13856612,0.13856612,10128,Lexington Ave
1067 fifth avenue,1917,12,13,-73.959488,40.782509,2.3413324,0.12738141,0.35666797,0.35666797,10128,Madison Ave
1070 park avenue,1928,72,15,-73.956627,40.781391,2.2276213,0.31441459,0.16839202,0.16839202,10128,Madison Ave
1075 park avenue,1922,56,14,-73.956161,40.7812,2.2102227,0.32684207,0.15782867,0.15782867,10128,Lexington Ave
108 east 66th street,1928,18,10,-73.966148,40.766991,1.1327626,0.26532617,0.17274162,0.17274162,10065,Lexington Ave
108 east 82nd street,1916,40,9,-73.958458,40.777222,1.9598097,0.38338697,0.24917047,0.24917047,10028,Lexington Ave
108 east 86th street,1924,29,14,-73.956657,40.779781,2.1598916,0.273404,0.0410106,0.0410106,10028,Lexington Ave
108 east 91st street,1928,38,9,-73.95433,40.783031,2.4065766,0.28583145,0.2963948,0.2963948,10128,Lexington Ave
1080 fifth avenue,1961,45,21,-73.958733,40.78355,2.4202468,0.046602957,0.43558228,0.43558228,10128,Madison Ave
1080 madison avenue,1981,29,15,-73.961121,40.77795,1.92377,0.21375223,0.40513504,0.40513504,10028,Madison Ave
1082 madison avenue,1910,13,5,-73.96106,40.778172,1.928741,0.21810183,0.40948462,0.40948462,10028,Madison Ave
1082 park avenue,1915,8,6,-73.95636,40.781738,2.2605541,0.28148186,0.20132476,0.20132476,,Madison Ave
1088 park avenue,1925,87,15,-73.956207,40.78196,2.2816806,0.26097655,0.22245143,0.22245143,10128,Madison Ave
109 east 100th street,1910,10,5,-73.950043,40.788952,2.8570719,0.33740538,0.22369419,0.22369419,,Lexington Ave
1095 park avenue,1930,68,18,-73.955688,40.78183,2.2661464,0.27091852,0.21313085,0.21313085,10128,Lexington Ave
11 east 68th street,1913,26,13,-73.967613,40.769451,1.2663577,0.13110964,0.20567438,0.20567438,10065,Madison Ave
11 east 73rd street,1903,16,5,-73.965599,40.772861,1.5459753,0.21934457,0.42750445,0.42750445,10021,Madison Ave
11 east 79th street,1928,5,14,-73.962883,40.776939,1.8603899,0.060273156,0.34051225,0.34051225,10075,Madison Ave
11 east 86th street,1960,54,20,-73.959282,40.781231,2.1953099,0.10501199,0.20940261,0.20940261,10028,Madison Ave
11 east 87th street,1954,85,12,-73.958839,40.78186,2.2499907,0.15845005,0.26284066,0.26284066,10128,Madison Ave
11 east 92nd street,1925,8,5,-73.956718,40.785091,2.5084817,0.16031417,0.42750445,0.42750445,10128,Madison Ave
11-15 east 70th street,1900,9,6,-73.966827,40.770771,1.3750979,0.11308984,0.31379324,0.31379324,10021,Madison Ave
110 east 71st street,1982,21,23,-73.963814,40.7701,1.3782047,0.31938559,0.22555831,0.22555831,10021,Lexington Ave
110 east 87th street,1939,64,13,-73.956108,40.780491,2.2151937,0.32994893,0.091963165,0.091963165,10028,Lexington Ave
110 east 97th street,2005,9,6,-73.951378,40.786678,2.7234766,0.26532617,0.11122572,0.11122572,10029,Lexington Ave
1100 park avenue,1930,67,18,-73.955887,40.782398,2.307157,0.2348789,0.24792773,0.24792773,10128,Madison Ave
1105 park avenue,1923,61,14,-73.955429,40.7822,2.2891371,0.24854909,0.23550026,0.23550026,10128,Lexington Ave
1107 fifth avenue,1925,26,13,-73.957588,40.785099,2.5420358,0.093827285,0.49399132,0.49399132,10128,Madison Ave
111 east 67th street,1931,88,11,-73.965111,40.767879,1.252066,0.30198714,0.035418246,0.035418246,10065,Lexington Ave
111 east 75th street,1925,36,10,-73.961411,40.772758,1.6124623,0.31752148,0.15099357,0.15099357,10021,Lexington Ave
111 east 85th street,1971,160,31,-73.956787,40.7794,2.1132886,0.25911242,0.095070027,0.095070027,10028,Lexington Ave
111 east 88th street,1929,58,11,-73.955231,40.781158,2.2841661,0.36163893,0.12116768,0.12116768,10128,Lexington Ave
1110 park avenue,2015,9,16,-73.955727,40.782619,2.3282835,0.21437359,0.26905438,0.26905438,10128,Madison Ave
1111 park avenue,1925,85,14,-73.955254,40.782452,2.3158562,0.22120869,0.26221928,0.26221928,10128,Lexington Ave
1112 park avenue,1927,43,15,-73.95591,40.782791,2.336983,0.20567438,0.27713224,0.27713224,10128,Madison Ave
1115 fifth avenue,1926,40,14,-73.956902,40.78574,2.5861533,0.13856612,0.44863111,0.44863111,10128,Madison Ave
112 east 71st street,1920,1,6,-73.963722,40.770061,1.3906322,0.33181304,0.21313085,0.21313085,10021,Lexington Ave
112 east 74th street,1917,21,9,-73.962242,40.77206,1.5478395,0.35231835,0.21623771,0.21623771,10021,Lexington Ave
112 east 83rd street,1929,25,10,-73.957916,40.777809,2.013869,0.36163893,0.19324692,0.19324692,10028,Lexington Ave
112 east 98th street,1910,15,5,-73.95108,40.787529,2.7601378,0.30136576,0.17522711,0.17522711,10029,Lexington Ave
1120 fifth avenue,1925,45,14,-73.956818,40.78616,2.6259212,0.14540122,0.40948462,0.40948462,10128,Madison Ave
1120 park avenue,1929,70,21,-73.955711,40.783001,2.3562455,0.205053,0.29701617,0.29701617,10128,Madison Ave
1123 park avenue,1926,65,,-73.955025,40.782909,2.3463035,0.22617967,0.29266655,0.29266655,10128,Lexington Ave
1125 fifth avenue,1925,18,14,-73.95665,40.7864,2.648912,0.12241043,0.38649383,0.38649383,10128,Madison Ave
1125 park avenue,1926,65,14,-73.95488,40.782951,2.3512745,0.23115066,0.29763755,0.29763755,10128,Lexington Ave
1130 park avenue,1927,44,16,-73.95533,40.783169,2.3842072,0.23301478,0.32497793,0.32497793,10128,Madison Ave
1133 fifth avenue,1928,17,14,-73.956383,40.78677,2.6750097,0.096312776,0.36039618,0.36039618,10128,Madison Ave
1133 park avenue,1924,32,16,-73.954643,40.78315,2.3692942,0.24854909,0.31565735,0.31565735,10128,Lexington Ave
1135 park ave 9w,1924,32,,-73.954857,40.7831,2.3624592,0.241714,0.30882224,0.30882224,10128,Lexington Ave
1136 fifth avenue,1925,43,14,-73.956169,40.78706,2.6893013,0.082021199,0.34610462,0.34610462,10128,Madison Ave
114 east 70th street,1920,1,5,-73.964088,40.76936,1.3471361,0.28955969,0.1572073,0.1572073,10021,Lexington Ave
114 east 72nd street,1963,39,20,-73.96315,40.77063,1.4484198,0.39022207,0.26346204,0.26346204,10021,Lexington Ave
114 east 84th street,1915,34,9,-73.957321,40.7784,2.0728993,0.31814283,0.13608062,0.13608062,10028,Lexington Ave
114 east 90th street,1925,38,9,-73.954369,40.782219,2.3854499,0.26470479,0.21934457,0.21934457,10128,Lexington Ave
114 east 91st street,1910,10,5,-73.954132,40.78294,2.419004,0.29888028,0.28334597,0.28334597,10128,Lexington Ave
1140 fifth avenue,1922,44,14,-73.95594,40.787201,2.717263,0.054059427,0.31938559,0.31938559,10128,Madison Ave
1148 fifth avenue,1923,59,13,-73.955498,40.787628,2.7439821,0.026719028,0.29204518,0.29204518,10128,Madison Ave
115 east 60th street,1900,2,5,-73.968582,40.76334,0.84693104,0.28521007,0.045981582,0.045981582,,Lexington Ave
115 east 61st street,1930,,14,-73.968102,40.763939,0.90036911,0.24233536,0.1093616,0.1093616,,Lexington Ave
115 east 86th street,1928,56,16,-73.956238,40.779942,2.1748047,0.28769559,0.041631974,0.041631974,10028,Lexington Ave
115 east 87th street,1972,198,38,-73.955849,40.78067,2.227,0.341755,0.079535708,0.079535708,10128,Lexington Ave
115 east 90th street,1923,44,9,-73.954391,40.78244,2.3755081,0.25538421,0.22866517,0.22866517,10128,Lexington Ave
1150 fifth avenue,1924,74,15,-73.95533,40.787891,2.773808,0.026097655,0.29204518,0.29204518,10029,Madison Ave
1150 park avenue,1940,89,19,-73.954811,40.78389,2.428946,0.278375,0.30757952,0.30757952,10128,Madison Ave
1155 park avenue,1915,60,14,-73.954338,40.78368,2.4115477,0.29080245,0.29453069,0.29453069,10128,Lexington Ave
1158 fifth avenue,1924,58,15,-73.954987,40.788349,2.8017697,0.0341755,0.32000697,0.32000697,10029,Madison Ave
116 east 63rd street,1920,34,9,-73.967194,40.76498,1.0047597,0.346726,0.037903737,0.037903737,10065,Lexington Ave
116 east 66th street,1954,58,13,-73.965813,40.76683,1.1576174,0.29080245,0.14788671,0.14788671,10065,Lexington Ave
116 east 68th street,1931,88,11,-73.964943,40.76812,1.252066,0.30198714,0.035418246,0.035418246,10065,Lexington Ave
116 east 92nd street,1920,13,5,-73.953743,40.7836,2.4643643,0.34424049,0.24109262,0.24109262,,Lexington Ave
1160 park avenue,1926,64,14,-73.954803,40.784248,2.4550438,0.30447266,0.28148186,0.28148186,10128,Madison Ave
1160 third avenue,1965,163,19,-73.962799,40.767006,1.3216598,0.44552425,0.10004101,0.10004101,10065,Lexington Ave
1165 fifth avenue,1926,54,15,-73.954712,40.78907,2.8471298,0.056544919,0.3647458,0.3647458,10029,Madison Ave
1165 park avenue,1925,55,14,-73.954048,40.784081,2.4388881,0.31814283,0.26719028,0.26719028,10128,Lexington Ave
117 east 72nd street,1928,18,15,-73.962852,40.77087,1.4583619,0.40016404,0.25352007,0.25352007,10021,Lexington Ave
1170 fifth avenue,1926,60,16,-73.95443,40.789162,2.8713634,0.044117466,0.38960069,0.38960069,10029,Madison Ave
1172 park avenue,1926,46,14,-73.954323,40.784538,2.485491,0.3349199,0.25103459,0.25103459,10128,Madison Ave
1175 park avenue,1925,52,14,-73.953857,40.78434,2.4649856,0.34486187,0.24109262,0.24109262,10128,Lexington Ave
1175 york avenue,1958,232,18,-73.957848,40.761551,1.5316838,0.93205911,0.54618663,0.53065234,10065,York Ave
118 east 60th street,1963,234,33,-73.968391,40.762859,0.85625166,0.29453069,0.033554129,0.033554129,10022,Lexington Ave
1185 park avenue,1929,172,15,-73.953499,40.784828,2.5022681,0.33926952,0.20381026,0.20381026,10128,Lexington Ave
119 e 81 street,1926,35,,-73.958473,40.776535,1.9361974,0.35480383,0.24979185,0.24979185,10028,Lexington Ave
119 east 101 street,1910,,,-73.949471,40.789448,2.9179664,0.29888028,0.16342103,0.16342103,10029,Lexington Ave
119 east 101st street,1910,,,-73.949471,40.789448,2.9179664,0.29888028,0.16342103,0.16342103,10029,Lexington Ave
119 east 84th street,1926,35,9,-73.957191,40.778561,2.0728993,0.31814283,0.13608062,0.13608062,10028,Lexington Ave
1192 park avenue,1926,75,15,-73.953873,40.78516,2.5345793,0.31192911,0.20194614,0.20194614,10128,Madison Ave
1199 park avenue,1961,148,18,-73.953102,40.785339,2.5407932,0.30074441,0.16528516,0.16528516,10128,Lexington Ave
12 east 64th street,1872,5,5,-73.970016,40.766972,1.0942374,0.2007034,0.27899635,0.27899635,10065,Madison Ave
12 east 75th street,1910,10,4,-73.964722,40.773911,1.6366957,0.12800278,0.31814283,0.31814283,10021,Madison Ave
12 east 87th street,1912,25,9,-73.958977,40.781712,2.2530975,0.15534319,0.26594752,0.26594752,10028,Madison Ave
12 east 88th street,1931,39,13,-73.958588,40.78236,2.3083997,0.16031417,0.32249245,0.32249245,10128,Madison Ave
12 east 97th street,1926,113,11,-73.954193,40.788021,2.7595162,0.077050216,0.27464676,0.27464676,10029,Madison Ave
120 east 75th street,1923,35,9,-73.961479,40.772572,1.6155691,0.32062835,0.14788671,0.14788671,10021,Lexington Ave
120 east 79th street,1947,78,20,-73.959709,40.775131,1.8075733,0.25352007,0.15969279,0.15969279,10075,Lexington Ave
120 east 80th street,1930,,,-73.959175,40.775932,1.8684678,0.29204518,0.21126673,0.21126673,10075,Lexington Ave
120 east 81st street,1958,101,16,-73.958382,40.776348,1.92377,0.36723128,0.23736438,0.23736438,10028,Lexington Ave
120 east 83rd street,1925,20,5,-73.957626,40.77771,2.0269179,0.38649383,0.16777064,0.16777064,10028,Lexington Ave
120 east 85th street,1920,12,6,-73.956703,40.778969,2.1294444,0.27526811,0.078914337,0.078914337,10028,Lexington Ave
120 east 86 street,1920,118,,-73.956161,40.779697,2.1903389,0.2982589,0.016155692,0.016155692,10028,Lexington Ave
120 east 86th   street,1920,118,,-73.956161,40.779697,2.1903389,0.2982589,0.016155692,0.016155692,10028,Lexington Ave
120 east 86th street,1920,118,,-73.956161,40.779697,2.1903389,0.2982589,0.016155692,0.016155692,10028,Lexington Ave
120 east 87th street,1981,219,17,-73.955627,40.780289,2.2245145,0.37095952,0.05033119,0.05033119,10028,Lexington Ave
120 east 90th street,1962,104,15,-73.954063,40.782082,2.3730226,0.28583145,0.1982179,0.1982179,10128,Lexington Ave
120 east end avenue,1931,34,17,-73.945618,40.774658,2.745846,0.96872008,0.67543215,0.43868914,10028,York Ave
121 east 60th street,1924,,11,-73.968338,40.763229,0.86370808,0.30198714,0.02982589,0.02982589,,Lexington Ave
121 east 88th street,1910,15,5,-73.955032,40.781071,2.2866516,0.37033814,0.11246847,0.11246847,10128,Lexington Ave
1210 third avenue,1959,47,20,-73.961617,40.768681,1.4459344,0.446767,0.19573241,0.19573241,10021,Lexington Ave
1217 madison avenue,1930,87,15,-73.957619,40.781811,2.2487478,0.21996595,0.26159793,0.26159793,10128,Madison Ave
122 east 82nd street,1912,36,9,-73.958023,40.777031,1.982179,0.40948462,0.22307281,0.22307281,10028,Lexington Ave
1220 park avenue,1930,56,17,-73.95314,40.786171,2.6041732,0.24233536,0.13421652,0.13421652,10128,Madison Ave
123 63rd street,1923,36,,-73.967064,40.765049,1.0084879,0.35045421,0.030447263,0.030447263,10065,Lexington Ave
123 east 75th street,1962,104,16,-73.961296,40.772736,1.6149478,0.33802676,0.13048828,0.13048828,10021,Lexington Ave
123 east 88th street,1910,15,5,-73.954948,40.78104,2.2872729,0.36971676,0.11246847,0.11246847,10128,Lexington Ave
1230 park avenue,1930,80,16,-73.95295,40.78643,2.6277852,0.21872321,0.10998297,0.10998297,10128,Madison Ave
1235 park avenue,1928,60,15,-73.952492,40.786209,2.6091442,0.2323934,0.096934147,0.096934147,10128,Lexington Ave
1236 park avenue,1930,80,,-73.952789,40.786476,2.6371059,0.20940261,0.10128376,0.10128376,10128,Madison Ave
124 east 79th street,1985,66,21,-73.959557,40.775082,1.8168939,0.26284066,0.15037221,0.15037221,10075,Lexington Ave
124 east 84th street,1924,34,9,-73.957062,40.77829,2.0809772,0.33243442,0.12178905,0.12178905,10028,Lexington Ave
124 east 85th street,1920,10,5,-73.956642,40.778938,2.1337941,0.28023911,0.073943354,0.073943354,10028,Lexington Ave
124 east 91st street,1910,24,6,-73.953781,40.782791,2.4376452,0.31876421,0.26284066,0.26284066,10128,Lexington Ave
125 east 63rd street,1923,36,9,-73.96682,40.76503,1.0221581,0.36288169,0.018019808,0.018019808,10065,Lexington Ave
125 east 64th street,1910,5,5,-73.966476,40.765732,1.061926,0.40389228,0.080778457,0.080778457,10065,Lexington Ave
125 east 72nd street,1917,62,14,-73.962311,40.770641,1.4533908,0.43123269,0.22245143,0.22245143,10021,Lexington Ave
125 east 74th street,1928,30,9,-73.961838,40.772099,1.5652379,0.36971676,0.19883928,0.19883928,10021,Lexington Ave
125 east 84th street,1928,44,9,-73.956909,40.778439,2.0772491,0.33616266,0.11806082,0.11806082,10028,Lexington Ave
125 east 93rd street,1924,29,9,-73.952858,40.78426,2.5395503,0.42253345,0.1708775,0.1708775,10128,Lexington Ave
1260 2 avenue,1956,,,-73.961052,40.764999,1.3757192,0.56669194,0.32249245,0.1640424,10065,Second Ave
1261 madison avenue,1901,16,7,-73.956673,40.783539,2.3786149,0.11992494,0.39208621,0.39208621,10128,Madison Ave
127 east 64th street,1910,4,5,-73.966423,40.765709,1.0650328,0.40699914,0.077671595,0.077671595,10065,Lexington Ave
1274 madison avenue,1948,43,,-73.956505,40.784073,2.4146545,0.15596455,0.42812583,0.42812583,10128,Madison Ave
128 east 62 street,1920,,,-73.967407,40.764324,0.9680987,0.310065,0.090099044,0.090099044,10065,Lexington Ave
128 east 62nd   street,1920,,,-73.967407,40.764324,0.9680987,0.310065,0.090099044,0.090099044,10065,Lexington Ave
128 east 62nd street,1920,,,-73.967407,40.764324,0.9680987,0.310065,0.090099044,0.090099044,10065,Lexington Ave
128 east 83rd street,1928,18,5,-73.957367,40.777599,2.0219469,0.39146483,0.16279966,0.16279966,10028,Lexington Ave
1281 madison avenue,1952,9,10,-73.956161,40.784229,2.4332957,0.17522711,0.41134876,0.41134876,,Madison Ave
129 east 69th street,1916,28,12,-73.963799,40.768681,1.3079896,0.278375,0.077050216,0.077050216,10021,Lexington Ave
129 east 82nd street,1916,32,11,-73.957619,40.777081,1.9685088,0.42315483,0.20940261,0.20940261,10028,Lexington Ave
130 east 63rd street,1960,73,15,-73.966682,40.76474,1.010352,0.37468776,0.009941964,0.009941964,10065,Lexington Ave
130 east 67th street,1908,56,11,-73.964211,40.766991,1.2060845,0.33181304,0.074564725,0.074564725,10065,Lexington Ave
130 east 75th street,1929,58,11,-73.96125,40.772469,1.6149478,0.33864814,0.1298669,0.1298669,10021,Lexington Ave
130 east 94th street,1923,45,9,-73.952431,40.784679,2.5867746,0.37530914,0.11806082,0.11806082,10128,Lexington Ave
130 east end avenue,1929,48,16,-73.945099,40.774799,2.7682157,0.99108952,0.65306276,0.41631973,10028,York Ave
131 east 66th street,1907,44,11,-73.964752,40.766602,1.156996,0.34859011,0.12365317,0.12365317,10065,Lexington Ave
131 east 81st street,1983,16,18,-73.958076,40.77644,1.918799,0.37282366,0.23177204,0.23177204,10028,Lexington Ave
131 east 93rd street,1923,36,9,-73.952621,40.784161,2.5289869,0.4330968,0.16031417,0.16031417,10128,Lexington Ave
1314-1396 third ave,1920,,,-73.9571,40.774601,1.9200418,0.42501897,0.20878124,0.20878124,10075,Lexington Ave
132 east 65th street,2013,22,16,-73.965088,40.765709,1.1141213,0.40575638,0.11495396,0.11495396,10065,Lexington Ave
132 east 72nd street,1925,16,15,-73.962669,40.770451,1.4645755,0.42004797,0.23363616,0.23363616,10021,Lexington Ave
1326 madison avenue,1900,40,7,-73.955383,40.785801,2.5445213,0.22928654,0.30012304,0.30012304,10128,Madison Ave
133 east 64th street,1927,23,12,-73.966087,40.765541,1.0550909,0.42936856,0.055302173,0.055302173,10065,Lexington Ave
133 east 80th street,1930,19,14,-73.958572,40.775822,1.865361,0.32435656,0.17895535,0.17895535,10028,Lexington Ave
1337 third avenue,1910,90,,-73.958473,40.772598,1.7640772,0.42626169,0.1093616,0.1093616,10021,Second Ave
134 east 93rd street,1989,30,15,-73.952606,40.783939,2.5178022,0.44428152,0.14850809,0.14850809,10128,Lexington Ave
1349 lexington avenue,1922,68,10,-73.95372,40.781811,2.3475461,0.31068638,0.173363,0.173363,10128,Lexington Ave
135 east 71st street,1959,101,22,-73.962883,40.769951,1.4074092,0.36847404,0.17646986,0.17646986,10021,Lexington Ave
135 east 74th street,1925,31,11,-73.961441,40.771931,1.562131,0.39208621,0.17646986,0.17646986,10021,Lexington Ave
135 east 79th street,2012,31,20,-73.959129,40.77536,1.8212435,0.28831694,0.13483788,0.13483788,10075,Lexington Ave
135 east 83rd street,1961,60,16,-73.956673,40.777519,2.0163546,0.42377621,0.15782867,0.15782867,10028,Lexington Ave
1355 first avenue,2014,31,31,-73.955856,40.768299,1.8398846,0.85003793,0.57849801,0.16963476,10021,Second Ave
1356 first avenue,1910,28,5,-73.955429,40.76828,1.850448,0.83947456,0.56793469,0.18019809,10021,York Ave
1356 madison avenue,1902,12,6,-73.954597,40.786861,2.6308923,0.14229436,0.21437359,0.21437359,10128,Madison Ave
136 east 64th street,1928,65,11,-73.966248,40.7654,1.0588192,0.42501897,0.059651781,0.059651781,10065,Lexington Ave
136 east 76th street,1961,99,16,-73.960609,40.773022,1.6609293,0.29328793,0.075186104,0.075186104,10021,Lexington Ave
136 east 79th street,1929,25,14,-73.959343,40.774979,1.8150297,0.28521007,0.12800278,0.12800278,10075,Lexington Ave
1361 madison avenue,1902,52,7,-73.954361,40.78672,2.6271639,0.14664397,0.21872321,0.21872321,10128,Madison Ave
137 east 66th street,1918,33,9,-73.964127,40.766361,1.1880647,0.37965873,0.15472181,0.15472181,10065,Lexington Ave
1376 york avenue,1910,,,-73.953018,40.767799,2.0238111,0.94448656,0.67108256,0.34486187,10021,York Ave
1388 lexington avenue,1920,8,4,-73.953194,40.783031,2.4320529,0.37095952,0.21499497,0.21499497,10128,Lexington Ave
139 east 63rd street,1962,53,16,-73.966003,40.764709,1.0060024,0.40637776,0.0205053,0.0205053,10065,Lexington Ave
139 east 66th street,1918,20,9,-73.96389,40.766258,1.1924143,0.38462973,0.15969279,0.15969279,10065,Lexington Ave
139 east 79th street,1928,15,15,-73.958977,40.775169,1.8212435,0.28893831,0.13421652,0.13421652,10075,Lexington Ave
139 east 94th street,1928,45,11,-73.952057,40.784752,2.5706191,0.39146483,0.10190513,0.10190513,10128,Lexington Ave
14 east 64th street,1872,6,5,-73.969963,40.766941,1.0942374,0.2007034,0.27899635,0.27899635,10065,Madison Ave
14 east 68th street,1920,6,6,-73.96801,40.769409,1.2806492,0.11743945,0.21996595,0.21996595,10065,Madison Ave
14 east 74th street,1930,6,5,-73.96521,40.773281,1.5882287,0.17584848,0.37033814,0.37033814,10021,Madison Ave
14 east 75th street,1929,61,12,-73.964432,40.773811,1.6199187,0.14477985,0.30136576,0.30136576,10021,Madison Ave
14 east 77th street,1910,12,5,-73.963799,40.775169,1.7367368,0.10501199,0.21810183,0.21810183,,Madison Ave
14 east 90th street,1929,50,12,-73.957253,40.78344,2.3910422,0.077671595,0.40451366,0.40451366,10128,Madison Ave
14 east 92nd street,1920,10,4,-73.956902,40.784908,2.5103459,0.15907142,0.42936856,0.42936856,10128,Madison Ave
14 east 96th street,1985,17,18,-73.95488,40.787361,2.7017286,0.072079234,0.21685909,0.21685909,10128,Madison Ave
140 east 63rd street,1927,86,23,-73.96611,40.764519,1.0078666,0.40762052,0.021748045,0.021748045,10065,Lexington Ave
140 east 72nd street,1959,101,22,-73.962463,40.770359,1.4577404,0.42626169,0.22680105,0.22680105,10021,Lexington Ave
140 east 81st street,1928,83,12,-73.957703,40.77607,1.9200418,0.40513504,0.23363616,0.23363616,10028,Lexington Ave
140 east 83rd street,1961,64,16,-73.956886,40.77739,2.0231895,0.42998993,0.16466378,0.16466378,10028,Lexington Ave
140 east 95th street,1928,24,6,-73.951752,40.785221,2.6228144,0.33802676,0.055302173,0.055302173,10128,Lexington Ave
1408 second avenue,1967,235,37,-73.957207,40.769611,1.755378,0.84693104,0.50393331,0.081399828,10021,Second Ave
141 east 88th street,1927,69,12,-73.954323,40.780769,2.2767098,0.41321287,0.10190513,0.10190513,10128,Lexington Ave
1411 second avenue,1910,6,4,-73.957779,40.769909,1.7516497,0.66051924,0.38835797,0.091341794,,Second Ave
142 east 71st street,1927,42,11,-73.962471,40.769531,1.4018168,0.40389228,0.17149888,0.17149888,10021,Lexington Ave
1420 york avenue,1956,95,6,-73.951881,40.76907,2.1263375,0.84133869,0.56855607,0.44800973,10021,York Ave
1435 lexington avenue,1925,70,11,-73.951851,40.784382,2.533958,0.42812583,0.11246847,0.11246847,10128,Lexington Ave
1438 third avenue,1985,94,31,-73.956429,40.776009,2.0269179,0.51076841,0.30882224,0.23052928,10028,Lexington Ave
144 east 84th street,1962,95,14,-73.956352,40.777988,2.0716567,0.378416,0.11246847,0.11246847,10028,Lexington Ave
1441 third avenue,1985,61,24,-73.955856,40.7757,2.0169759,0.5014478,0.30633676,0.23984988,10028,Second Ave
145 east 69th street,1910,,,-73.96312,40.768299,1.3166888,0.32684207,0.086370811,0.086370811,10021,Lexington Ave
145 east 76th street,1999,20,15,-73.96003,40.772991,1.6634148,0.32746342,0.077671595,0.077671595,10021,Lexington Ave
145 east 84th street,1963,96,16,-73.95623,40.77816,2.067307,0.37406638,0.10811885,0.10811885,10028,Lexington Ave
1461 1 avenue,1963,210,,-73.953979,40.770603,2.0262964,0.69655883,0.39208621,0.35604659,10021,Second Ave
1474 third avenue,1981,31,17,-73.955429,40.77721,2.1195023,0.48591349,0.21623771,0.17709123,10028,Lexington Ave
148 east 83rd street,1910,10,5,-73.956627,40.77729,2.0300248,0.43682504,0.1708775,0.1708775,10028,Lexington Ave
148 east 84th street,1930,17,5,-73.956093,40.777882,2.0847056,0.39146483,0.12551729,0.12551729,10028,Lexington Ave
149 east 62nd street,1915,12,4,-73.966232,40.763988,0.97182697,0.37406638,0.085128061,0.085128061,10065,Lexington Ave
149 east 73rd street,1925,24,11,-73.961449,40.771111,1.5068289,0.47100052,0.22120869,0.22120869,10021,Lexington Ave
15 east 69th street,1926,48,18,-73.96701,40.77002,1.318553,0.078292966,0.25786969,0.25786969,10021,Madison Ave
15 east 82nd street,1950,2,6,-73.961143,40.77858,1.9883927,0.21437359,0.41072738,0.41072738,,Madison Ave
15 east 91st street,1948,43,16,-73.956627,40.784222,2.4419949,0.18330495,0.40264952,0.40264952,10128,Madison Ave
150 east 61st street,1960,131,16,-73.967041,40.763279,0.91776752,0.31814283,0.082642578,0.082642578,10065,Lexington Ave
150 east 69th street,1959,378,28,-73.962387,40.767849,1.3458934,0.35604659,0.11495396,0.11495396,10065,Lexington Ave
150 east 72nd street,1914,24,12,-73.962082,40.770199,1.4577404,0.45919445,0.22680105,0.19759654,10021,Lexington Ave
150 east 73rd street,1923,30,11,-73.961502,40.77092,1.5130426,0.47721425,0.22742242,0.22742242,10021,Lexington Ave
150 east 77th street,1959,97,16,-73.959686,40.773472,1.7156101,0.35666797,0.006213727,0.006213727,10021,Lexington Ave
150 east 78th street,1920,4,4,-73.95919,40.774071,1.7615917,0.36909541,0.074564725,0.074564725,10075,Lexington Ave
150 east 83rd street,1920,20,5,-73.956551,40.777248,2.0343742,0.44117466,0.17584848,0.17584848,10028,Lexington Ave
150 east 85th street,1986,102,15,-73.955879,40.77861,2.1195023,0.32684207,0.059651781,0.059651781,10028,Lexington Ave
150 east 93rd street,1923,63,11,-73.95208,40.783718,2.5215306,0.46727231,0.15223633,0.15223633,10128,Lexington Ave
150 east end avenue,1899,1,3,-73.944679,40.775471,2.8222749,1.0122162,0.66735435,0.43061131,10028,York Ave
151 east 78th street,2014,14,16,-73.958992,40.774231,1.7628344,0.37033814,0.075807475,0.075807475,10075,Lexington Ave
151 east 79th street,1925,16,15,-73.958611,40.775002,1.813787,0.32062835,0.12738141,0.12738141,10075,Lexington Ave
151 east 83rd street,1929,77,11,-73.956352,40.777382,2.0480444,0.45484483,0.18889731,0.18889731,10028,Lexington Ave
151 east 85th street,2007,118,18,-73.955772,40.778839,2.1244733,0.33119166,0.064622767,0.064622767,10028,Lexington Ave
151 east 86th   street,2007,,,-73.955109,40.779327,2.1866107,0.35853207,0.017398437,0.017398437,10028,Lexington Ave
1511 lexington avenue,1910,8,5,-73.950058,40.786831,2.7408752,0.3398909,0.090099044,0.090099044,,Lexington Ave
1513 lexington avenue,1910,8,5,-73.95002,40.786888,2.7452247,0.34486187,0.094448656,0.094448656,,Lexington Ave
152 east 83rd street,1910,20,5,-73.956467,40.77721,2.0393453,0.44614562,0.18081947,0.18081947,10028,Lexington Ave
152 east 94th street,1938,105,13,-73.951172,40.784161,2.5886388,0.43558228,0.11992494,0.11992494,10128,Lexington Ave
153 east 87th street,1928,42,11,-73.95472,40.780121,2.2294853,0.40451366,0.055302173,0.055302173,10128,Lexington Ave
155 east 72nd street,1929,39,16,-73.961472,40.770279,1.4788671,0.48094249,0.24854909,0.17646986,10021,Lexington Ave
155 east 73rd street,1923,32,9,-73.961281,40.771042,1.5173923,0.48156387,0.23177204,0.23177204,10021,Lexington Ave
155 east 76th street,1959,116,13,-73.959381,40.77272,1.6851629,0.34921148,0.099419639,0.099419639,10021,Lexington Ave
155 east 79th street,2014,7,14,-73.958389,40.775051,1.8218648,0.32870618,0.13545926,0.13545926,,Lexington Ave
155 east 86th   street,1930,,,-73.955086,40.779308,2.1884749,0.36039618,0.015534318,0.015534318,10028,Lexington Ave
155 east 91st street,1927,46,9,-73.952637,40.782539,2.4426162,0.38028011,0.26781166,0.26781166,10128,Lexington Ave
155 east 93rd street,1928,74,12,-73.952148,40.783958,2.5265017,0.47286466,0.1572073,0.1572073,10128,Lexington Ave
156 east 79th street,1917,60,14,-73.958504,40.77462,1.8280786,0.34299776,0.14167298,0.14167298,10075,Lexington Ave
1567 e 79th st,1917,60,,-73.955742,40.773632,1.98715,0.49709818,0.27588949,0.26781166,10075,Second Ave
157 east 72nd street,1924,139,15,-73.961258,40.770199,1.5018579,0.50331193,0.27091852,0.15347907,10021,Lexington Ave
157 east 74th street,1986,19,11,-73.960693,40.771629,1.5745585,0.43868914,0.18889731,0.18889731,10021,Lexington Ave
157 east 75th street,1910,12,5,-73.960243,40.77227,1.6261325,0.39022207,0.14105161,0.14105161,10021,Lexington Ave
157 east 84th street,1925,8,6,-73.955833,40.777988,2.0902979,0.39705718,0.13110964,0.13110964,10028,Lexington Ave
158 east 100th street,2004,12,6,-73.948578,40.787979,2.8993251,0.43744642,0.19635378,0.19635378,10029,Lexington Ave
1595 lexington ave,2007,,,-73.948441,40.78923,2.9266655,0.33740538,0.096934147,0.096934147,10029,Lexington Ave
1595 lexington avenue,2007,,,-73.948441,40.78923,2.9266655,0.33740538,0.096934147,0.096934147,10029,Lexington Ave
16 east 63rd street,1920,5,4,-73.97023,40.766239,1.0289932,0.16714926,0.21437359,0.21437359,10065,Madison Ave
16 east 80th street,1925,19,5,-73.962311,40.77718,1.8945655,0.10625474,0.37530914,0.37530914,10075,Madison Ave
16 east 84th street,1900,8,6,-73.960388,40.77969,2.0896766,0.13421652,0.31255049,0.31255049,10028,Madison Ave
16 east 96th street,1906,40,6,-73.954597,40.787251,2.6886799,0.085128061,0.20381026,0.20381026,10128,Madison Ave
16 east 98th street,1925,53,10,-73.953819,40.788681,2.8005269,0.10376925,0.31565735,0.31565735,10029,Madison Ave
160 east 65th street,1968,180,31,-73.964394,40.765121,1.1656953,0.45670897,0.1665279,0.1665279,10065,Lexington Ave
160 east 67th street,1975,,,-73.963844,40.766853,1.2328035,0.35853207,0.10128376,0.10128376,10065,Lexington Ave
160 east 72nd street,1928,20,15,-73.961853,40.7701,1.477003,0.478457,0.2460636,0.17833398,10021,Lexington Ave
160 east 91st street,1941,125,8,-73.952744,40.78236,2.4432375,0.38090149,0.26843303,0.26843303,10128,Lexington Ave
1601 third avenue,1975,304,42,-73.951752,40.781509,2.4898405,0.42688307,0.31317186,0.30882224,10128,Second Ave
161 east 75th street,1910,12,,-73.960213,40.77216,1.628618,0.39270756,0.14415847,0.14415847,10021,Lexington Ave
161 east 79th street,1915,24,12,-73.958321,40.774879,1.8249717,0.3398909,0.13856612,0.13856612,10075,Lexington Ave
161 east 88th street,1937,42,6,-73.953773,40.780548,2.3083997,0.44552425,0.13421652,0.13421652,10128,Lexington Ave
161 east 90th street,1926,27,9,-73.953041,40.781879,2.3991201,0.33864814,0.22493693,0.22493693,10128,Lexington Ave
161 east 91st street,1941,48,6,-73.95237,40.782421,2.4562864,0.39395031,0.28148186,0.28148186,10128,Lexington Ave
1617 york avenue,1910,20,6,-73.947731,40.775429,2.6166005,0.82394028,0.53935152,0.30260852,,York Ave
1619 third avenue,1975,270,34,-73.950706,40.781792,2.4898405,0.42688307,0.31317186,0.30882224,10128,Second Ave
162 east 80th street,1926,26,9,-73.95784,40.775299,1.8883518,0.373445,0.20194614,0.20194614,10075,Lexington Ave
162 east 91st street,1941,22,5,-73.95253,40.782269,2.4575291,0.39519307,0.28272459,0.28272459,10128,Lexington Ave
1623 third avenue,1975,384,42,-73.950706,40.781792,2.5414145,0.478457,0.29763755,0.23798576,10128,Second Ave
1628 second avenue,1915,14,6,-73.952362,40.776711,2.302186,0.57104152,0.29950166,0.043496091,10028,Second Ave
163 east 71st street,1910,2,5,-73.962112,40.769619,1.418594,0.42004797,0.18765457,0.18765457,,Lexington Ave
163 east 81st street,1927,42,9,-73.956848,40.775921,1.9635378,0.44863111,0.27651086,0.27651086,10028,Lexington Ave
164 east 72nd street,1926,42,15,-73.961617,40.77002,1.4801098,0.48156387,0.24917047,0.17522711,10021,Lexington Ave
1641 third avenue,1975,317,,-73.951134,40.782372,2.5836678,0.52071035,0.31317186,0.20940261,10128,Second Ave
165 east 60th street,1930,21,6,-73.966743,40.76255,0.89912635,0.39705718,0.047224328,0.047224328,10065,Lexington Ave
165 east 72nd street,1960,183,20,-73.9608,40.77,1.5130426,0.51449662,0.28210321,0.14291573,10021,Lexington Ave
165 east 76th street,1960,183,,-73.959618,40.772774,1.6851629,0.34921148,0.099419639,0.099419639,10021,Lexington Ave
166 east 61st street,1963,165,20,-73.966293,40.762939,0.95753539,0.35853207,0.070215121,0.070215121,10065,Lexington Ave
166 east 63rd street,1959,157,20,-73.965439,40.764229,1.0693824,0.46913642,0.083263949,0.083263949,10065,Lexington Ave
166 east 78th street,1920,10,5,-73.958679,40.773869,1.7914176,0.39892131,0.10501199,0.10501199,10075,Lexington Ave
166 east 92nd street,1927,41,6,-73.951851,40.782799,2.5184238,0.45795169,0.24854909,0.24854909,10128,Lexington Ave
166 east 96th street,1928,65,16,-73.950279,40.785419,2.7060783,0.34734735,0.055302173,0.055302173,10128,Lexington Ave
167 east 61st street,1983,176,39,-73.965889,40.763008,0.96188498,0.36288169,0.065865509,0.065865509,10065,Lexington Ave
167 east 67th street,1960,96,20,-73.963173,40.766781,1.2582798,0.38400835,0.12676004,0.12676004,10065,Lexington Ave
167 east 82nd street,1929,40,10,-73.956413,40.776569,2.0126264,0.49771956,0.25352007,0.24419948,10028,Lexington Ave
168 east 74th street,1926,31,9,-73.960327,40.771252,1.6025203,0.46665093,0.21685909,0.21685909,10021,Lexington Ave
168 east 90th street,1920,10,5,-73.952904,40.781582,2.4134116,0.35293972,0.2392285,0.2392285,10128,Lexington Ave
169 east 69th street,1961,60,20,-73.962242,40.768028,1.3632917,0.373445,0.1323524,0.1323524,10021,Lexington Ave
169 east 78th street,1928,38,10,-73.958519,40.77401,1.7951459,0.40264952,0.10874023,0.10874023,10075,Lexington Ave
17 east 63rd street,1905,5,5,-73.970001,40.766369,1.0227796,0.173363,0.20815986,0.20815986,10065,Madison Ave
17 east 73rd street,1920,3,5,-73.965439,40.772789,1.5329266,0.23177204,0.41445562,0.41445562,10021,Madison Ave
17 east 80th street,1920,11,7,-73.962143,40.777321,1.8908372,0.10998297,0.3715809,0.3715809,10028,Madison Ave
17 east 84th street,1925,21,9,-73.960136,40.7798,2.095269,0.12862416,0.31814283,0.31814283,10028,Madison Ave
17 east 89th street,1925,60,12,-73.95771,40.783031,2.3357401,0.13173102,0.35045421,0.35045421,10128,Madison Ave
17 east 95th street,1920,13,6,-73.955208,40.786888,2.6476693,0.12427454,0.26905438,0.26905438,10128,Madison Ave
17 east 96th street,1923,61,15,-73.954437,40.78751,2.682466,0.091341794,0.19759654,0.19759654,10029,Madison Ave
17 east 97th street,1904,24,6,-73.95388,40.788101,2.739011,0.098176889,0.25600556,0.25600556,10029,Madison Ave
170 east 77th street,1942,54,10,-73.958946,40.773151,1.7423291,0.38338697,0.032311384,0.032311384,10021,Lexington Ave
170 east 78th street,1927,34,9,-73.958519,40.7738,1.798874,0.40637776,0.1118471,0.1118471,10075,Lexington Ave
170 east 79th street,1927,26,15,-73.958267,40.774529,1.8386419,0.35356107,0.15223633,0.15223633,10075,Lexington Ave
170 east 87th street,1991,234,28,-73.954071,40.77964,2.2798166,0.45422348,0.10501199,0.10501199,10028,Lexington Ave
170 east 88th street,1980,39,5,-73.953758,40.780331,2.3195844,0.45670897,0.14540122,0.14540122,10128,Lexington Ave
170 east 90th street,1920,10,5,-73.952812,40.78154,2.419004,0.35853207,0.24482086,0.24482086,10128,Lexington Ave
170 east 92nd street,1920,20,5,-73.951691,40.78273,2.5289869,0.46789366,0.25911242,0.24979185,10128,Lexington Ave
170 east 94th street,1928,42,6,-73.950958,40.784069,2.6153579,0.46230131,0.14664397,0.14664397,10128,Lexington Ave
170 east end avenue,2008,96,19,-73.94426,40.77602,2.8663924,1.0575764,0.7083649,0.47410738,10128,York Ave
171 east 84th street,1987,219,36,-73.95533,40.777828,2.1213665,0.42812583,0.16217828,0.16217828,10028,Lexington Ave
172 east 90th street,1920,10,5,-73.952713,40.781502,2.4196255,0.35853207,0.24482086,0.24482086,10128,Lexington Ave
1724 second avenue,1910,26,8,-73.949913,40.780079,2.5662694,0.55177897,0.39022207,0.19076143,10128,Second Ave
1725 york avenue,1971,259,33,-73.945686,40.778271,2.8334596,0.83636773,0.65927649,0.42688307,10128,York Ave
173 east 74th street,1915,15,5,-73.960098,40.771358,1.6105981,0.47472876,0.22493693,0.22493693,10021,Lexington Ave
174 east 74th street,1966,120,20,-73.960007,40.771118,1.6174332,0.48156387,0.23177204,0.23177204,10021,Lexington Ave
175 east 62nd street,1963,70,20,-73.965408,40.76363,1.0171871,0.41880521,0.11060435,0.11060435,10065,Lexington Ave
175 east 73rd street,1910,4,3,-73.960709,40.770821,1.5515677,0.51573938,0.26594752,0.21126673,10021,Lexington Ave
175 east 74th street,1963,96,21,-73.959877,40.771271,1.6192974,0.483428,0.23363616,0.23363616,10021,Lexington Ave
175 east 79th street,1928,62,15,-73.957977,40.774738,1.8473412,0.35356107,0.16031417,0.16031417,10075,Lexington Ave
175 east 93rd street,1928,16,4,-73.951683,40.78376,2.5445213,0.49088445,0.17522711,0.17522711,10128,Lexington Ave
175 east 94th street,1950,2,3,-73.950844,40.784248,2.6159792,0.46292269,0.14726534,0.14726534,,Lexington Ave
175 east 96 street,1920,,,-73.949852,40.785446,2.724098,0.36536717,0.054059427,0.054059427,10029,Lexington Ave
176 east 62 street,1963,70,,-73.965797,40.763596,1.0060024,0.40762052,0.11930356,0.11930356,10065,Lexington Ave
176 east 71st street,1962,95,20,-73.961517,40.769112,1.450284,0.45173797,0.21934457,0.20629574,10021,Lexington Ave
176 east 77th street,1957,165,17,-73.958542,40.77298,1.7715337,0.41259149,0.061515901,0.061515901,10021,Lexington Ave
1760 second avenue,2000,140,33,-73.948921,40.78138,2.6700387,0.60956663,0.43371817,0.12613867,10128,Second Ave
177 east 77th street,1942,57,12,-73.958656,40.773258,1.7634559,0.40389228,0.053438056,0.053438056,10075,Lexington Ave
177 east 79th street,1980,15,19,-73.957809,40.77467,1.8610114,0.36723128,0.17398436,0.17398436,10075,Lexington Ave
177 east 93rd street,1920,16,4,-73.951576,40.783718,2.548871,0.49523407,0.18019809,0.18019809,10128,Lexington Ave
178 east 80th street,1973,148,25,-73.957413,40.775051,1.9194204,0.40451366,0.2323934,0.2323934,10075,Lexington Ave
179 east 78th street,1900,14,5,-73.958252,40.773899,1.8100588,0.41756248,0.12365317,0.12365317,10075,Lexington Ave
179 east 79th street,1928,59,15,-73.95768,40.774609,1.8697106,0.37593052,0.18268359,0.18268359,10075,Lexington Ave
1790 third avenue,2017,52,13,-73.947929,40.78743,2.9297724,0.52816683,0.25849107,0.25849107,,Lexington Ave
18 east 63rd street,1920,10,4,-73.970154,40.766209,1.0258864,0.17025612,0.21064536,0.21064536,10065,Madison Ave
18 east 77th street,1910,5,5,-73.963638,40.77512,1.7274162,0.11495396,0.20815986,0.20815986,10021,Madison Ave
18 east 81st street,1930,10,5,-73.961823,40.77779,1.9411684,0.15907142,0.42191207,0.42191207,10028,Madison Ave
18 east 84th street,1910,26,6,-73.960297,40.779621,2.0815988,0.14229436,0.30447266,0.30447266,10028,Madison Ave
180 east 79th street,1930,130,18,-73.958153,40.774471,1.8591472,0.37406638,0.17274162,0.17274162,10075,Lexington Ave
180 east 88 street,2019,48,50,-73.953529,40.780231,2.3301477,0.46665093,0.15534319,0.15534319,10128,Lexington Ave
180 east 88th street,2019,48,50,-73.953529,40.780231,2.3301477,0.46665093,0.15534319,0.15534319,10128,Lexington Ave
180 east 93rd street,2009,7,7,-73.95137,40.78339,2.5712404,0.51760352,0.20256752,0.20256752,10128,Lexington Ave
180 east end avenue,1960,150,21,-73.944008,40.77673,2.9142382,1.0165658,0.75621063,0.52195311,10128,York Ave
181 east 65th street,2000,93,32,-73.964073,40.765511,1.1700449,0.46167994,0.1708775,0.1708775,10065,Lexington Ave
181 east 73rd street,1958,116,19,-73.960358,40.770641,1.5776653,0.54183704,0.29204518,0.18454771,10021,Lexington Ave
181 east 90th street,2004,84,30,-73.952248,40.781689,2.4426162,0.38152286,0.26781166,0.26781166,10128,Lexington Ave
181 east 93rd street,1928,41,6,-73.951302,40.783611,2.5662694,0.51263249,0.19759654,0.19759654,10128,Lexington Ave
1810 3 avenue,2005,,,-73.947166,40.788193,2.9931524,0.4647868,0.2118881,0.2118881,10029,Lexington Ave
1810 third avenue,2005,,,-73.947166,40.788193,2.9931524,0.4647868,0.2118881,0.2118881,10029,Lexington Ave
184 east 64th street,2017,5,6,-73.964867,40.76482,1.1060435,0.50766152,0.10687611,0.10687611,,Lexington Ave
186 east 75th street,1920,4,4,-73.96003,40.771931,1.6441523,0.4082419,0.15969279,0.15969279,10021,Lexington Ave
1865 2 avenue,1987,261,,-73.947006,40.784412,2.902432,0.54245842,0.23115066,0.030447263,10029,Second Ave
188 east 64th street,1987,196,42,-73.9646,40.764671,1.1159854,0.51760352,0.11681808,0.11681808,10065,Lexington Ave
188 east 70th street,1986,97,31,-73.961899,40.768471,1.4148657,0.41694111,0.18392633,0.18392633,10021,Lexington Ave
188 east 75th street,1924,24,6,-73.95993,40.771912,1.6516087,0.41569835,0.1665279,0.1665279,10021,Lexington Ave
188 east 76th street,1996,73,31,-73.959137,40.772388,1.7162315,0.38028011,0.13048828,0.13048828,10021,Lexington Ave
188 east 78th street,2000,72,32,-73.960709,40.770821,1.8293214,0.43682504,0.14229436,0.14229436,10075,Lexington Ave
19   east 79 street,1920,,,-73.962769,40.776611,1.8398846,0.070215121,0.32124969,0.32124969,10075,Madison Ave
19 east 72nd street,1937,34,17,-73.965691,40.77206,1.465197,0.22866517,0.40451366,0.40451366,10021,Madison Ave
19 east 73rd street,1925,5,6,-73.96537,40.772758,1.5291983,0.23550026,0.41072738,0.41072738,10021,Madison Ave
19 east 88th street,1937,98,16,-73.958153,40.782398,2.2835448,0.18516907,0.29763755,0.29763755,10128,Madison Ave
19 east 95th street,1921,13,6,-73.955101,40.786839,2.6476693,0.12427454,0.26905438,0.26905438,10128,Madison Ave
190 east 72nd street,1962,125,34,-73.961197,40.769798,1.5149068,0.51698214,0.28396735,0.14043024,10021,Lexington Ave
194 east 101 street,2005,,,-73.947395,40.788513,2.9863174,0.42564031,0.18454771,0.18454771,10029,Lexington Ave
1949 first avenue,1925,23,6,-73.943108,40.78577,3.2230604,0.76242435,0.49896231,0.35418245,,Second Ave
196 east 75th street,1961,136,20,-73.959541,40.77174,1.6708713,0.43558228,0.18641183,0.18641183,10021,Lexington Ave
2 east 67th street,1928,23,12,-73.96907,40.769032,1.2707072,0.043496091,0.30882224,0.30882224,10065,Madison Ave
2 east 80th street,1925,8,6,-73.962769,40.777382,1.9231486,0.078292966,0.4032709,0.4032709,10075,Madison Ave
2 east 88th street,1930,13,14,-73.959229,40.782639,2.3413324,0.12676004,0.35542521,0.35542521,10128,Madison Ave
2 east end avenue,1910,57,10,-73.948303,40.770802,2.4662285,0.97617656,0.75496787,0.62447959,10075,York Ave
20 east 68th street,1955,83,15,-73.967621,40.769249,1.2601439,0.13732338,0.19946066,0.19946066,10065,Madison Ave
20 east 74th street,1947,102,16,-73.964851,40.773151,1.5683448,0.19573241,0.34983286,0.34983286,10021,Madison Ave
20 east 84th street,1910,25,6,-73.960213,40.779621,2.0815988,0.14229436,0.30447266,0.30447266,10028,Madison Ave
20 east 88th street,1923,18,5,-73.958389,40.782269,2.2928655,0.17584848,0.30695814,0.30695814,10128,Madison Ave
20 east end avenue,2017,41,18,-73.94783,40.77145,2.5165596,1.0035169,0.80592042,0.57476979,10028,York Ave
200 east 61st street,1986,218,43,-73.965729,40.76268,1.0066239,0.40699914,0.056544919,0.056544919,10065,Second Ave
200 east 62nd street,1967,113,30,-73.964813,40.763081,1.0625473,0.46230131,0.1118471,0.1118471,10065,Second Ave
200 east 66th street,1951,497,20,-73.963463,40.765781,1.2601439,0.46851504,0.22493693,0.22493693,10065,Second Ave
200 east 69th street,1991,277,57,-73.961731,40.76759,1.4067879,0.41569835,0.1572073,0.12054631,10065,Second Ave
200 east 74th street,1962,153,21,-73.959473,40.770889,1.6659003,0.52692407,0.25352007,0.22555831,10021,Second Ave
200 east 78th street,1965,126,21,-73.957642,40.77343,1.818758,0.45857307,0.10811885,0.10811885,10075,Second Ave
200 east 79th street,2011,45,19,-73.9571,40.774021,1.9038861,0.41818386,0.19324692,0.19324692,10075,Second Ave
200 east 84th street,1961,126,18,-73.954712,40.777302,2.1716976,0.47783563,0.2075385,0.136702,10028,Second Ave
200 east 89th street,1987,253,45,-73.952164,40.780418,2.4227324,0.45857307,0.24544223,0.24544223,10128,Second Ave
200 east 90th street,1980,179,28,-73.951859,40.781158,2.4774132,0.41445562,0.30136576,0.30136576,10128,Second Ave
200 east 94th street,1986,287,31,-73.949867,40.783611,2.6308923,0.52319586,0.20878124,0.14788671,10128,Second Ave
200 east 95th street,2017,83,30,-73.949638,40.78434,2.8222749,0.56855607,0.25476283,0.031068636,,Second Ave
200 east end avenue,1952,189,16,-73.94352,40.77734,2.9732685,0.95691401,0.81027007,0.58098352,10128,York Ave
200-210 east 65th street,1987,295,50,-73.963547,40.764778,1.2178906,0.5082829,0.21748045,0.21748045,10065,Second Ave
201 east 62nd street,1963,69,20,-73.964882,40.763401,1.0600619,0.45981583,0.1093616,0.1093616,10065,Second Ave
201 east 66th street,1961,256,21,-73.96302,40.765888,1.2545515,0.44552425,0.20132476,0.20132476,10065,Second Ave
201 east 77th street,1965,90,19,-73.957909,40.77293,1.8113015,0.45111662,0.10066238,0.10066238,10075,Second Ave
201 east 79th street,1963,168,20,-73.956963,40.774311,1.9113425,0.41569835,0.20008202,0.20008202,10075,Second Ave
201 east 80th street,1926,100,24,-73.956322,40.774872,1.9747225,0.45795169,0.26346204,0.26346204,10028,Second Ave
201 east 83rd street,1964,115,18,-73.955078,40.776852,2.1176383,0.52381724,0.25352007,0.13980886,10028,Second Ave
203 east 72nd street,1966,149,27,-73.959969,40.76965,1.5664806,0.56731331,0.3169001,0.089477673,10021,Second Ave
203 east 89th street,1920,20,5,-73.951973,40.780609,2.4401307,0.47721425,0.26284066,0.26284066,10128,Second Ave
204 east 73rd   street,1920,10,,-73.959534,40.770153,1.6273752,0.59092546,0.31752148,0.15969279,10021,Second Ave
204 east 90th street,1920,30,5,-73.95163,40.781078,2.4954329,0.43247542,0.31876421,0.3032299,10128,Second Ave
205 east 59th street,2003,42,25,-73.966042,40.761501,0.91341794,0.483428,0.055302173,0.055302173,,Second Ave
205 east 63rd street,1963,131,20,-73.964172,40.763939,1.108529,0.50890428,0.1230318,0.1230318,10065,Second Ave
205 east 68th street,1991,95,8,-73.9618,40.767071,1.4067879,0.41569835,0.1572073,0.12054631,10065,Second Ave
205 east 69th street,1929,72,11,-73.961288,40.76762,1.4291573,0.43806779,0.17895535,0.098176889,10021,Second Ave
205 east 76th street,1995,6,6,-73.958214,40.772228,1.767184,0.42936856,0.15596455,0.15596455,10021,Second Ave
205 east 77th street,1962,113,14,-73.95771,40.772861,1.8286999,0.46851504,0.11743945,0.11743945,10075,Second Ave
205 east 78th street,1931,218,20,-73.957352,40.773521,1.8622541,0.46789366,0.15099357,0.15099357,10075,Second Ave
205 east 85th street,2007,165,20,-73.953827,40.777969,2.2363205,0.441796,0.17212024,0.16217828,10028,Second Ave
205 east 88th street,1920,20,5,-73.952431,40.77998,2.3916636,0.52692407,0.21561635,0.21561635,10128,Second Ave
206 east 61st street,1910,1,4,-73.965233,40.762501,1.0190513,0.41942659,0.068351001,0.068351001,,Second Ave
206 east 73rd street,2006,10,7,-73.959541,40.7701,1.6267538,0.59030408,0.31627873,0.16093554,10021,Second Ave
206 east 90th street,1920,30,5,-73.951561,40.781029,2.4954329,0.43247542,0.31876421,0.3032299,10128,Second Ave
206 east 95th street,1989,43,18,-73.949348,40.784161,2.7377682,0.48404935,0.17025612,0.11557533,10128,Second Ave
207 east 74th street,1963,120,13,-73.958794,40.77084,1.6957262,0.55737132,0.28396735,0.19511104,10021,Second Ave
207 east 79th street,2016,,,-73.95668,40.774181,1.8895944,0.39581442,0.19697516,0.19697516,,Second Ave
207 east 88th street,1920,20,5,-73.952347,40.779949,2.3960133,0.53127366,0.21996595,0.21126673,10128,Second Ave
208 east 70th street,1970,36,6,-73.960876,40.76804,1.4794885,0.48032114,0.22928654,0.14540122,10021,Second Ave
208 east 82nd street,1920,35,6,-73.955353,40.775921,2.0859482,0.56979883,0.32124969,0.17212024,10028,Second Ave
208 east 84th street,1910,80,5,-73.954323,40.777142,2.1984167,0.50455469,0.23363616,0.10998297,10028,Second Ave
208 east 90th street,1920,10,5,-73.951477,40.780998,2.4954329,0.43247542,0.31876421,0.3032299,10128,Second Ave
209 east 88th street,1920,20,5,-73.952271,40.779911,2.4009843,0.53624469,0.22493693,0.20629574,10128,Second Ave
21 east 61st street,1951,68,17,-73.970459,40.764938,0.92460263,0.073321983,0.25476283,0.25476283,10065,Madison Ave
21 east 66th street,1941,19,11,-73.968483,40.768188,1.1607243,0.1230318,0.29577342,0.29577342,10065,Madison Ave
21 east 79th street,1930,12,14,-73.962563,40.776669,1.8373991,0.08388532,0.31752148,0.31752148,10075,Madison Ave
21 east 90th street,1927,50,14,-73.957169,40.783619,2.3804789,0.087613553,0.39457169,0.39457169,10128,Madison Ave
21 east 96th street,2005,9,13,-73.954239,40.787441,2.6774952,0.096312776,0.19262555,0.19262555,,Madison Ave
210 east 62nd street,1963,69,,-73.964584,40.763145,1.0780817,0.478457,0.12800278,0.12800278,10065,Second Ave
210 east 63rd street,1964,74,13,-73.96418,40.763691,1.1265488,0.52692407,0.14105161,0.14105161,10065,Second Ave
210 east 73rd street,1929,81,11,-73.959267,40.769981,1.6460164,0.60956663,0.33616266,0.14105161,10021,Second Ave
210 east 84th street,1910,79,5,-73.954239,40.7771,2.1984167,0.50455469,0.23363616,0.10998297,10028,Second Ave
210 east 88th street,1930,20,5,-73.952309,40.779709,2.4047124,0.5399729,0.22866517,0.20256752,10128,Second Ave
210 east 90th street,1910,16,5,-73.951401,40.78096,2.5047536,0.441796,0.3280848,0.29390931,10128,Second Ave
212 east 70th street,1900,16,4,-73.960762,40.767979,1.4863236,0.48715621,0.23612164,0.13856612,10021,Second Ave
212 east 77th street,1950,39,5,-73.957443,40.772518,1.8429916,0.48280662,0.13173102,0.13173102,10021,Second Ave
212 east 84th street,1910,79,5,-73.954163,40.777069,2.1984167,0.50455469,0.23363616,0.10998297,10028,Second Ave
212 east 88th street,1930,20,5,-73.952232,40.779678,2.4096835,0.54432249,0.23301478,0.19759654,,Second Ave
212 east 95th street,2007,22,10,-73.949074,40.783951,2.7570307,0.50331193,0.18951869,0.096312776,10128,Second Ave
213 east 71st street,1910,3,4,-73.96019,40.768799,1.5329266,0.53438056,0.28334597,0.14540122,10021,Second Ave
213 east 77th street,1930,30,6,-73.957237,40.772781,1.8405061,0.48032114,0.1298669,0.1298669,10075,Second Ave
213 east 88th street,1920,20,5,-73.95211,40.77985,2.4090621,0.54432249,0.23301478,0.1982179,10128,Second Ave
214 east 70th street,1880,4,5,-73.96067,40.767941,1.4925373,0.49274859,0.24233536,0.1323524,10021,Second Ave
214 east 84th street,1910,80,5,-73.954079,40.777031,2.1984167,0.50455469,0.23363616,0.10998297,10028,Second Ave
214 east 88th street,1930,20,5,-73.952141,40.77964,2.4140332,0.54929352,0.23798576,0.19324692,10128,Second Ave
215 east 72nd street,1929,32,15,-73.959763,40.769562,1.582015,0.58284765,0.33243442,0.074564725,10021,Second Ave
215 east 73rd street,1930,71,10,-73.959068,40.7701,1.6522301,0.61578035,0.34237638,0.13483788,10021,Second Ave
215 east 79th street,1947,87,15,-73.956322,40.77404,1.9567027,0.46167994,0.2460636,0.2460636,10075,Second Ave
215 east 80th street,1963,145,13,-73.955856,40.7747,1.9995775,0.483428,0.28893831,0.25786969,10028,Second Ave
215 east 81st street,1974,40,8,-73.955551,40.775391,2.0455592,0.53003097,0.3349199,0.2118881,10028,Second Ave
215 east 88th street,1920,20,5,-73.952026,40.779819,2.4146545,0.5499149,0.23860712,0.19262555,10128,Second Ave
215 east 96th street,2005,261,41,-73.94838,40.785042,2.8148184,0.45484483,0.1435371,0.091341794,10029,Second Ave
215 east 98th street,1911,,,-73.948425,40.786591,2.8639069,0.46105856,0.19262555,0.19262555,10029,Lexington Ave
216 east 75th street,1986,8,4,-73.958328,40.771229,1.7435719,0.50704014,0.23363616,0.23363616,10021,Second Ave
218 east 82nd street,1920,20,5,-73.955101,40.775791,2.1014826,0.58533311,0.33678403,0.15658593,10028,Second Ave
219 east 67th street,1916,5,6,-73.961517,40.76622,1.3626704,0.48653486,0.2118881,0.16777064,10065,Second Ave
219 east 83rd street,1920,6,5,-73.954353,40.77652,2.1598916,0.56607056,0.29577342,0.097555518,10028,Second Ave
22 east 82nd street,1900,9,6,-73.961128,40.778339,1.9809363,0.22183007,0.4032709,0.4032709,10028,Madison Ave
22 east 88 street,1927,72,13,-73.958191,40.7822,2.2841661,0.18454771,0.2982589,0.2982589,10128,Madison Ave
220 east 60th street,1965,137,13,-73.965317,40.761711,0.99419636,0.49088445,0.062137272,0.062137272,,Second Ave
220 east 65th street,1978,281,26,-73.963654,40.765079,1.2644935,0.55488586,0.26408342,0.23984988,10065,Second Ave
220 east 67th street,1964,115,14,-73.962173,40.766121,1.3496215,0.47348604,0.19883928,0.18081947,10065,Second Ave
220 east 73rd street,1932,92,13,-73.958946,40.769829,1.6652789,0.62882918,0.35542521,0.12178905,10021,Second Ave
220 east 82nd street,1910,20,5,-73.955017,40.775749,2.1058321,0.5896827,0.341755,0.15223633,10028,Second Ave
220 east 87th street,1960,44,5,-73.952682,40.779041,2.3612163,0.53438056,0.18516907,0.14540122,10028,Second Ave
221 east 76th street,1929,43,6,-73.957619,40.77198,1.8057091,0.46789366,0.19448967,0.19448967,10021,Second Ave
221 east 78th street,1948,54,6,-73.956779,40.773281,1.8927014,0.49896231,0.18206221,0.18206221,10075,Second Ave
222 east 71st street,1925,24,6,-73.959938,40.768471,1.5559174,0.55737132,0.30633676,0.12241043,10021,Second Ave
222 east 80th street,1962,95,12,-73.955818,40.77441,2.0120049,0.49585545,0.30136576,0.24544223,10075,Second Ave
222 east 82nd street,1928,48,6,-73.954903,40.77573,2.1226094,0.60583842,0.35791069,0.13545926,10028,Second Ave
222 east 95th street,1910,17,5,-73.948624,40.783909,2.7800217,0.5263027,0.2118881,0.073943354,10128,Second Ave
224 east 74th street,1910,22,6,-73.958687,40.77055,1.7050468,0.56669194,0.29328793,0.18579045,,Second Ave
225 east 73rd street,1932,88,13,-73.958748,40.76997,1.6696285,0.63255745,0.35915345,0.11806082,10021,Second Ave
225 east 74th street,1938,84,6,-73.957909,40.770451,1.7286589,0.59030408,0.3169001,0.16217828,10021,Second Ave
225 east 76th street,1962,47,7,-73.957413,40.7719,1.8162725,0.478457,0.205053,0.205053,10021,Second Ave
225 east 79th street,1930,80,17,-73.956017,40.773911,1.9666448,0.4716219,0.25538421,0.25538421,10075,Second Ave
225 east 81st street,2014,5,6,-73.9552,40.775219,2.0648217,0.54867214,0.35418245,0.19262555,10028,Second Ave
225 east 86th street,1981,60,13,-73.952759,40.778481,2.3208272,0.49336997,0.14850809,0.077671595,10028,Second Ave
226 east 95th street,1920,28,5,-73.94838,40.78381,2.792449,0.53873014,0.22431555,0.061515901,10128,Second Ave
227 east 67th street,2016,5,6,-73.961311,40.76598,1.3800689,0.50393331,0.22928654,0.15037221,,Second Ave
227 east 87th street,1920,20,5,-73.952332,40.779121,2.3748865,0.54867214,0.19946066,0.13173102,10128,Second Ave
229 east 79th street,1930,90,15,-73.95578,40.773811,1.982179,0.48653486,0.27091852,0.27091852,10075,Second Ave
229 east 81st street,1900,11,4,-73.95504,40.775162,2.0710354,0.55488586,0.35977483,0.18703319,10028,Second Ave
23 east 74th street,1929,78,16,-73.964767,40.773338,1.5708302,0.19324692,0.35293972,0.35293972,10021,Madison Ave
23 east 81st street,1939,8,6,-73.961563,40.77792,1.933712,0.1665279,0.41445562,0.41445562,10028,Madison Ave
230 east 63rd street,2013,6,6,-73.963341,40.763351,1.1781228,0.57849801,0.19200417,0.19200417,10065,Second Ave
230 east 71st street,1929,60,6,-73.95948,40.76828,1.5733157,0.57476979,0.32311383,0.10501199,10021,Second Ave
230 east 73rd street,1937,92,12,-73.958641,40.769699,1.6839201,0.64747041,0.37406638,0.10314787,10021,Second Ave
230 east 79th street,1964,110,19,-73.9561,40.773609,1.9747225,0.48839897,0.26346204,0.26346204,10075,Second Ave
230 east 97th   street,1920,,,-73.947266,40.785202,2.9061604,0.50331193,0.2348789,0.11122572,10029,Second Ave
231 east 88th street,1920,10,5,-73.951401,40.779549,2.4519367,0.58657587,0.27526811,0.15534319,10128,Second Ave
233 east 69th street,1957,204,16,-73.960274,40.767181,1.4863236,0.49523407,0.23674302,0.040389229,10021,Second Ave
233 east 70th street,1957,90,16,-73.959488,40.767681,1.5540532,0.55488586,0.30447266,0.070836492,10021,Second Ave
233 east 86th street,1983,57,22,-73.952568,40.7784,2.3313906,0.50393331,0.15907142,0.067108259,10028,Second Ave
233 east 88th street,1920,10,5,-73.951317,40.77951,2.4550438,0.59030408,0.27899635,0.15223633,10128,Second Ave
234 east 70th street,2011,8,9,-73.959839,40.767578,1.5422472,0.54245842,0.29204518,0.082642578,10021,Second Ave
234 east 84th street,2011,3,6,-73.953598,40.776691,2.2381847,0.54432249,0.273404,0.070215121,,Second Ave
235 east 73rd street,1936,84,13,-73.958427,40.769829,1.6882697,0.65182,0.37779462,0.099419639,10021,Second Ave
235 east 87th street,1962,139,12,-73.951897,40.778969,2.3953919,0.56917745,0.21996595,0.11122572,10128,Second Ave
236 east 78th street,1910,22,6,-73.956688,40.773041,1.9119639,0.51822484,0.2007034,0.2007034,10075,Second Ave
236 east 81st street,1910,6,6,-73.95475,40.774818,2.0977542,0.5816049,0.38649383,0.16031417,10028,Second Ave
237 east 72nd street,1910,4,3,-73.959068,40.76926,1.6242683,0.62510097,0.37406638,0.032311384,10021,Second Ave
237 east 79th street,1970,17,4,-73.955582,40.773731,1.9964706,0.50082642,0.28521007,0.26346204,10075,Second Ave
237 east 88th street,1920,20,5,-73.951157,40.779442,2.4656069,0.60086745,0.28955969,0.14167298,10128,Second Ave
238 east 74th street,1920,5,4,-73.95829,40.77037,1.7286589,0.59030408,0.3169001,0.16217828,10021,Second Ave
238 east 84th street,1962,22,5,-73.953438,40.776772,2.2443984,0.5499149,0.27961773,0.064622767,10028,Second Ave
239 east 79th street,1957,208,18,-73.955421,40.77367,2.0424521,0.54867214,0.33243442,0.21561635,10075,Second Ave
24 east 82nd street,1910,13,,-73.960938,40.778336,1.9709944,0.23177204,0.39332893,0.39332893,10028,Madison Ave
24 east 93rd street,1925,45,10,-73.95594,40.785332,2.5296085,0.24357811,0.34921148,0.34921148,10128,Madison Ave
240 east 76th street,1957,293,16,-73.956833,40.771431,1.8579044,0.52008897,0.24668498,0.23177204,10021,Second Ave
240 east 79th street,1929,64,16,-73.955887,40.773521,1.9840431,0.49771956,0.27278262,0.27278262,10075,Second Ave
241 east 76th street,1959,92,10,-73.956718,40.77161,1.8560404,0.51822484,0.24482086,0.23363616,10021,Second Ave
242 east 87th street,1941,49,5,-73.951981,40.778751,2.407198,0.58036214,0.23115066,0.10004101,10028,Second Ave
243 east 77th street,1910,14,6,-73.956718,40.77243,1.882138,0.52195311,0.17149888,0.17149888,10075,Second Ave
244 east 60th street,1940,18,5,-73.964539,40.761391,1.0407994,0.53748739,0.1093616,0.1093616,,Second Ave
244 east 90th street,1910,20,4,-73.950531,40.780602,2.5569489,0.49399132,0.38090149,0.24109262,10128,Second Ave
245 east 72nd street,1930,120,20,-73.958817,40.76918,1.640424,0.64125669,0.39084345,0.016155692,10021,Second Ave
245 east 87th street,1966,118,20,-73.951401,40.7789,2.4264605,0.59962469,0.25041321,0.080157086,10128,Second Ave
245 east 93rd street,1986,290,32,-73.948914,40.78265,2.7334187,0.63069332,0.31503597,0.044117466,10128,Second Ave
248 east 90th street,1911,20,,-73.950325,40.780594,2.5662694,0.50331193,0.38960069,0.2323934,10128,Second Ave
25 east 69th street,1920,13,6,-73.966209,40.769691,1.3260094,0.13794474,0.19759654,0.19759654,10021,Madison Ave
25 east 77th street,1927,10,15,-73.96347,40.775261,1.7218238,0.11992494,0.20318888,0.20318888,,Madison Ave
25 east 83rd street,1937,54,12,-73.960678,40.77924,2.0188401,0.205053,0.34299776,0.34299776,10028,Madison Ave
25 east 86th street,1926,110,15,-73.958961,40.78109,2.1816397,0.11868219,0.19573241,0.19573241,10028,Madison Ave
25 east end avenue,1928,39,15,-73.947273,40.771191,2.5140741,1.0004101,0.80281359,0.57787663,10075,York Ave
250 east 65th street,1963,88,14,-73.961983,40.76442,1.2999117,0.59030408,0.29950166,0.22928654,10065,Second Ave
250 east 87th street,1970,258,30,-73.951668,40.778542,2.4196255,0.59341097,0.24357811,0.086992182,10028,Second Ave
255 east 74th street,2008,87,31,-73.95755,40.77047,1.7516497,0.6132949,0.3398909,0.1391875,10021,Second Ave
259 east 87th street,1970,258,,-73.952019,40.77895,2.3941491,0.56731331,0.21810183,0.11246847,10128,Second Ave
26 east 63rd street,1901,68,13,-73.969414,40.765911,1.0140803,0.21810183,0.16279966,0.16279966,,Madison Ave
26 east 93rd street,1925,46,10,-73.955856,40.785309,2.5296085,0.24357811,0.34921148,0.34921148,10128,Madison Ave
260 e 72 street,1963,219,,-73.958626,40.768864,1.6578225,0.65865511,0.4082419,0.0205053,10021,Second Ave
27 east 65th street,1963,82,17,-73.968407,40.767342,1.1091503,0.20256752,0.26594752,0.26594752,10065,Madison Ave
27 east 95th street,1930,13,6,-73.954872,40.786751,2.6277852,0.14477985,0.24917047,0.24917047,10128,Madison Ave
275 east 78 street,1931,218,,-73.956108,40.772957,1.9417897,0.54805076,0.23052928,0.23052928,10075,Second Ave
29 east 64th street,1922,43,12,-73.968781,40.76667,1.0644115,0.26843303,0.21126673,0.21126673,10065,Madison Ave
29 east 72nd street,1917,28,12,-73.965157,40.771812,1.4589832,0.26284066,0.39829993,0.39829993,10021,Madison Ave
3 east 66th street,1934,27,9,-73.969162,40.768478,1.2054631,0.078292966,0.34051225,0.34051225,10065,Madison Ave
3 east 69th street,1938,31,13,-73.967491,40.770229,1.3371941,0.059651781,0.27588949,0.27588949,10021,Madison Ave
3 east 71st street,1948,46,13,-73.966766,40.771561,1.4465557,0.14105161,0.3852511,0.3852511,10021,Madison Ave
3 east 75th street,1930,8,5,-73.964958,40.774239,1.660308,0.10439062,0.341755,0.341755,,Madison Ave
3 east 77th street,1927,68,12,-73.963943,40.775471,1.755378,0.086992182,0.23612164,0.23612164,10075,Madison Ave
3 east 78th street,1910,12,6,-73.963493,40.776112,1.8026023,0.10687611,0.28334597,0.28334597,10075,Madison Ave
3 east 84th street,1928,11,9,-73.960716,40.780048,2.6936507,1.0171871,0.74689001,0.45360211,10028,Madison Ave
3 east 85th street,1913,30,9,-73.960312,40.780708,2.170455,0.053438056,0.29328793,0.29328793,10028,Madison Ave
3-5 east 71st street,1948,46,,-73.967239,40.771717,1.4720321,0.11495396,0.41072738,0.41072738,10021,Madison Ave
30 east 62nd street,1958,100,16,-73.969818,40.765259,0.95939952,0.16342103,0.21748045,0.21748045,10065,Madison Ave
30 east 65th street,1962,63,17,-73.968483,40.76717,1.1178496,0.21064536,0.25786969,0.25786969,10065,Madison Ave
30 east 72nd street,1930,23,16,-73.965134,40.771488,1.4720321,0.27526811,0.35791069,0.35791069,10021,Madison Ave
30 east 76th street,1928,,,-73.963333,40.774239,1.6646576,0.1298669,0.21499497,0.21499497,10021,Madison Ave
30 east 85th street,1987,92,30,-73.959549,40.78017,2.1244733,0.10004101,0.24730635,0.24730635,10028,Madison Ave
30 east 95th street,1910,37,7,-73.954903,40.78656,2.6228144,0.14912945,0.24419948,0.24419948,10128,Madison Ave
300 east 62nd street,1986,110,31,-73.962791,40.762241,1.1905502,0.59092546,0.23984988,0.23984988,10065,Second Ave
300 east 64th street,1996,103,27,-73.961761,40.7635,1.298669,0.69842297,0.29763755,0.28334597,10065,Second Ave
300 east 71st street,1961,285,18,-73.958527,40.767872,1.6429095,0.64436352,0.39457169,0.089477673,10021,Second Ave
300 east 74th street,1967,230,36,-73.957237,40.769878,1.7982527,0.65927649,0.38649383,0.13421652,10021,Second Ave
300 east 77th street,2000,90,31,-73.955803,40.77182,1.9461395,0.58595449,0.2348789,0.2348789,10021,Second Ave
300 east 79th street,2008,33,15,-73.95488,40.77306,2.043695,0.5579927,0.33305579,0.24730635,10075,Second Ave
300 east 85th street,1987,200,40,-73.952011,40.776901,2.3612163,0.56669194,0.29515204,0.092584535,10028,Second Ave
300 east 89th street,1987,200,,-73.950043,40.779648,2.5606771,0.59589648,0.38338697,0.18392633,10128,Second Ave
300 east 90th street,1987,31,10,-73.949631,40.780231,2.6147366,0.55177897,0.43806779,0.23052928,10128,Second Ave
300 east 93rd street,1987,221,45,-73.948563,40.782188,2.7588949,0.70401531,0.38835797,0.080778457,10128,Second Ave
300 east 95th street,1987,18,10,-73.947639,40.78344,2.8545864,0.60086745,0.28707421,0.037903737,10128,Second Ave
301 east 61st street,2017,30,19,-73.963303,40.761959,1.1377335,0.53810877,0.18703319,0.18703319,,Second Ave
301 east 62nd street,1959,130,14,-73.962601,40.762451,1.1961426,0.5965178,0.2460636,0.2460636,10065,Second Ave
301 east 63rd street,1959,166,16,-73.962128,40.763062,1.2365317,0.63628566,0.25041321,0.25041321,10065,Second Ave
301 east 64th street,1963,136,18,-73.961761,40.763721,1.2905911,0.69096649,0.28955969,0.27526811,10065,Second Ave
301 east 66th street,1956,199,16,-73.9608,40.76495,1.3893894,0.57974076,0.33616266,0.17709123,10065,Second Ave
301 east 69th street,1963,195,19,-73.959396,40.766819,1.5347906,0.54370117,0.28458872,0.007456473,10021,Second Ave
301 east 75th street,1966,138,19,-73.956581,40.770721,1.845477,0.60956663,0.33554128,0.18330495,10021,Second Ave
301 east 78th street,1963,124,17,-73.955193,40.772621,1.9952278,0.60148883,0.28396735,0.28396735,10075,Second Ave
301 east 79th street,1974,538,36,-73.954399,40.77327,2.0623362,0.56731331,0.35169697,0.25662693,10075,Second Ave
301 east 82nd street,1973,142,,-73.953339,40.775192,2.2015235,0.68537414,0.43558228,0.091963165,10028,Second Ave
301 east 87th street,1973,142,24,-73.950821,40.778542,2.4724422,0.64560628,0.2963948,0.096934147,10128,Second Ave
301 east 94th street,1989,108,31,-73.947701,40.782959,2.8098476,0.65492684,0.3398909,0.005592355,10128,Second Ave
302 e 86th street,1917,,,-73.951416,40.777699,2.4096835,0.58222628,0.23736438,0.011184709,10028,Second Ave
302 east 88th street,1957,59,6,-73.950394,40.778889,2.533958,0.66921842,0.35791069,0.15782867,10128,Second Ave
302 east 96th street,2018,48,21,-73.946709,40.783779,2.9223161,0.56234235,0.25103459,0.050952565,,Second Ave
303 east 60th street,1986,157,39,-73.963669,40.761299,1.1060435,0.60273153,0.17460574,0.17460574,,Second Ave
303 east 77th street,2008,30,19,-73.95565,40.77203,1.9492463,0.58906138,0.23798576,0.23798576,10075,Second Ave
304 east 65th street,1987,126,39,-73.96154,40.764091,1.3378155,0.62820786,0.33740538,0.22555831,10065,Second Ave
304 east 73rd street,1910,40,5,-73.95739,40.769169,1.7597276,0.72327787,0.45173797,0.096934147,10021,Second Ave
305 east 72nd street,1957,178,17,-73.957779,40.769039,1.6913766,0.69220924,0.44117466,0.031068636,10021,Second Ave
305 east 83rd street,1910,40,5,-73.952477,40.775749,2.2723601,0.67853904,0.40699914,0.064001389,10028,Second Ave
305 east 85th street,2009,58,20,-73.951752,40.7771,2.360595,0.56607056,0.29515204,0.091963165,10028,Second Ave
305 east 88th street,1929,90,6,-73.950142,40.779011,2.5370648,0.67232531,0.36101755,0.16093554,10128,Second Ave
305 east 91st street,1920,16,5,-73.948837,40.780918,2.6719027,0.61143076,0.49585545,0.18889731,10128,Second Ave
306 east 82nd street,2008,7,6,-73.953171,40.774979,2.2151937,0.69904435,0.44925249,0.10625474,10028,Second Ave
308 east 72nd street,1996,75,22,-73.958008,40.768478,1.6982117,0.69904435,0.44863111,0.019883927,10021,Second Ave
308 east 73rd street,1910,14,5,-73.957268,40.769119,1.7646986,0.72824883,0.45670897,0.10190513,10021,Second Ave
308 east 79th street,1928,170,17,-73.954491,40.77293,2.0648217,0.57849801,0.35418245,0.26843303,10075,Second Ave
309 east 87th street,1959,122,7,-73.949966,40.778149,2.4991612,0.67232531,0.32311383,0.12427454,10128,Second Ave
31 east 64th   street,1922,43,,-73.969002,40.766735,1.0494986,0.25476283,0.22990791,0.22990791,10065,Madison Ave
31 east 79th street,1925,18,14,-73.962341,40.776581,1.8206221,0.10066238,0.30074441,0.30074441,10075,Madison Ave
310 east 70th street,1959,135,12,-73.958809,40.767021,1.6074913,0.60770255,0.35728931,0.098798268,10021,Second Ave
311 east 71st street,1962,96,13,-73.957916,40.76786,1.6683857,0.6698398,0.41880521,0.11557533,10021,Second Ave
311 east 75th street,1930,64,6,-73.956161,40.770531,1.8759243,0.64001393,0.36598855,0.21375223,10021,Second Ave
311 east 83rd street,1978,16,6,-73.952164,40.775639,2.2791953,0.68537414,0.41383424,0.070836492,10028,Second Ave
313 east 89th street,1950,34,5,-73.949409,40.77953,2.6147366,0.65182,0.43806779,0.23798576,10128,Second Ave
315 east 65th street,1962,132,13,-73.960869,40.764198,1.371991,0.66238332,0.3715809,0.25911242,10065,Second Ave
315 east 68th street,1931,289,17,-73.959908,40.766209,1.4993724,0.60770255,0.24917047,0.090099044,10065,Second Ave
315 east 69th street,1961,135,13,-73.958672,40.766529,1.5751799,0.58409035,0.32497793,0.047845699,10021,Second Ave
315 east 70th street,1960,124,12,-73.958603,40.76733,1.6155691,0.61640173,0.36723128,0.10687611,10021,Second Ave
315 east 72nd street,1958,219,20,-73.957321,40.768532,1.7286589,0.72949159,0.47907838,0.068351001,10021,Second Ave
315 east 77th street,1928,64,6,-73.955238,40.771809,1.9697516,0.60894531,0.25849107,0.25849107,10075,Second Ave
315 east 80th street,1928,60,6,-73.953621,40.773739,2.135658,0.61950862,0.42501897,0.22742242,10075,Second Ave
315 east 85th street,1931,289,,-73.951401,40.776867,2.3842072,0.5896827,0.31876421,0.1161967,10028,Second Ave
315 east 88th street,1929,90,6,-73.949829,40.778881,2.5370648,0.67232531,0.36101755,0.16093554,10128,Second Ave
317 east 73rd street,1910,20,5,-73.956741,40.769119,1.7889321,0.75248235,0.48094249,0.12613867,10021,Second Ave
318   east 90 street,1930,,,-73.948753,40.779926,2.660718,0.59776056,0.48404935,0.27588949,10128,Second Ave
318-320 east 83rd street,1939,31,5,-73.952164,40.775249,2.3028073,0.70898628,0.43744642,0.094448656,10028,Second Ave
319 east 70th street,1960,124,,-73.958824,40.767357,1.5963066,0.59713918,0.34796873,0.088234931,10021,Second Ave
319 east 73rd street,1910,20,5,-73.956627,40.769058,1.7939031,0.75745338,0.48591349,0.13110964,10021,Second Ave
32 east 64th street,1910,26,10,-73.968903,40.76651,1.0650328,0.26967576,0.21064536,0.21064536,10065,Madison Ave
32 east 76th street,1982,30,13,-73.963188,40.774109,1.6739782,0.13856612,0.20629574,0.20629574,,Madison Ave
320 east 72nd street,1930,42,19,-73.957626,40.76833,1.7199597,0.72079235,0.4697578,0.0410106,10021,Second Ave
320 east 82nd street,1900,,6,-73.952667,40.774769,2.2462626,0.73011297,0.48032114,0.13732338,,Second Ave
320 east 86th street,1925,24,5,-73.950897,40.777351,2.4444804,0.61702311,0.27216125,0.045981582,10028,Second Ave
321 east 71st street,1940,39,5,-73.957703,40.767738,1.6832987,0.68475276,0.4330968,0.1298669,10021,Second Ave
321 east 84th street,1940,5,4,-73.95166,40.77623,2.3431966,0.64871311,0.37779462,0.085128061,10028,Second Ave
321 east 89th street,1950,34,5,-73.949089,40.779388,2.6147366,0.65182,0.43806779,0.23798576,10128,Second Ave
322 east 85th street,1905,15,5,-73.951309,40.776699,2.3947706,0.60024607,0.32870618,0.12613867,10028,Second Ave
323 east 89th street,1910,14,5,-73.948898,40.779308,2.6203289,0.65741235,0.44366014,0.24357811,10128,Second Ave
325 east 72nd street,1927,60,16,-73.957001,40.768398,1.7441933,0.74502593,0.49461269,0.08388532,10021,Second Ave
325 east 77th street,1940,59,6,-73.954781,40.77161,1.9964706,0.63628566,0.28521007,0.28521007,10075,Second Ave
325 east 79th street,1929,83,16,-73.953583,40.772888,2.11391,0.61888725,0.4032709,0.30820087,10075,Second Ave
325 east 80th street,1940,48,6,-73.953056,40.773499,2.1636198,0.64747041,0.45298073,0.25538421,10075,Second Ave
325 east 93rd street,1920,10,5,-73.947144,40.781841,2.8179255,0.76304573,0.44738838,0.13980886,10128,Second Ave
326 east 73rd street,1910,20,5,-73.956543,40.768822,1.8081946,0.77174497,0.50020504,0.14540122,10021,Second Ave
327 east 82nd street,1986,2,3,-73.952454,40.77491,2.2512333,0.73508394,0.48529211,0.14229436,,Second Ave
327 east 93rd street,1920,10,5,-73.94706,40.781811,2.820411,0.76553118,0.45049524,0.14229436,10128,Second Ave
328 east 77th street,1908,16,5,-73.955009,40.771488,1.9914997,0.63131469,0.28023911,0.28023911,10021,Second Ave
328 east 94th street,1920,14,5,-73.94664,40.782242,2.8763344,0.72203511,0.40637776,0.097555518,10128,Second Ave
33 east 70th street,1928,62,12,-73.965988,40.770409,1.3657773,0.1708775,0.25662693,0.25662693,,Madison Ave
33 east end avenue,1942,75,12,-73.946991,40.771412,2.5221519,1.047013,0.85314476,0.55426449,10075,York Ave
330 east 65th street,1910,28,6,-73.960457,40.76379,1.3931177,0.68351001,0.39270756,0.28086048,,Second Ave
330 east 70th street,1957,73,7,-73.957588,40.76664,1.6615506,0.66238332,0.41134876,0.15347907,10021,Second Ave
330 east 72nd street,2005,13,15,-73.957443,40.768242,1.7361155,0.73694807,0.48591349,0.057166293,10021,Second Ave
330 east 75th street,1985,197,39,-73.955093,40.76981,1.9480035,0.71209317,0.43806779,0.28583145,10021,Second Ave
330 east 79th street,1941,70,10,-73.953949,40.772701,2.1033468,0.61702311,0.39208621,0.30695814,10075,Second Ave
330 east 80th street,1956,108,7,-73.953491,40.773449,2.165484,0.64933449,0.45422348,0.25724831,10075,Second Ave
330 east 83rd street,1925,84,5,-73.951607,40.775162,2.3313906,0.73756945,0.46540818,0.12241043,10028,Second Ave
330 east 90th street,1930,20,5,-73.948334,40.779671,2.6874371,0.62447959,0.51076841,0.30260852,10128,Second Ave
330 east 94th street,1920,16,5,-73.946564,40.782211,2.8819268,0.72762746,0.41197014,0.10314787,10128,Second Ave
331 east 83rd street,1925,8,3,-73.951469,40.775341,2.3307691,0.73694807,0.46540818,0.12241043,10028,Second Ave
331 east 92nd street,1920,16,5,-73.947357,40.78109,2.7868567,0.72389925,0.51636076,0.20815986,10128,Second Ave
332 east 77th street,1910,19,5,-73.954849,40.77142,2.0008202,0.64001393,0.28955969,0.28955969,10021,Second Ave
332 east 84th street,1920,48,6,-73.951439,40.775928,2.370537,0.6766749,0.40513504,0.11308984,10028,Second Ave
333 east 66th street,1964,191,14,-73.959381,40.764381,1.4813526,0.67232531,0.42874718,0.26967576,10065,Second Ave
333 east 68th street,1928,64,16,-73.9589,40.765789,1.5416257,0.64995587,0.29142383,0.1323524,10065,Second Ave
333 east 69th street,1963,116,13,-73.95813,40.7663,1.6149478,0.62385821,0.3647458,0.087613553,10021,Second Ave
333 east 75th street,1961,123,14,-73.95536,40.770222,1.9219059,0.68599552,0.41197014,0.2597338,10021,Second Ave
333 east 80th street,1920,54,6,-73.952927,40.773441,2.1828823,0.66611159,0.4716219,0.27464676,10075,Second Ave
333 east 91st street,2007,110,32,-73.947281,40.780281,2.7638659,0.70339394,0.58781862,0.28086048,10128,Second Ave
333 east 92nd street,1920,16,5,-73.947281,40.78109,2.7868567,0.72389925,0.51636076,0.20815986,10128,Second Ave
334 east 65th street,1910,28,6,-73.960342,40.763729,1.4011955,0.69158787,0.40078542,0.28893831,,Second Ave
334 east 83rd street,1920,10,5,-73.95153,40.775131,2.3357401,0.74191904,0.47037917,0.12676004,10028,Second Ave
335 east 90th street,1910,10,5,-73.948112,40.7798,2.6942723,0.63131469,0.51760352,0.30944362,10128,Second Ave
336 east 77th street,1910,19,5,-73.954689,40.771358,2.0101409,0.64995587,0.29888028,0.29888028,10021,Second Ave
337 east 62nd street,2013,22,7,-73.961548,40.762138,1.2508233,0.65057725,0.30012304,0.30012304,10065,Second Ave
338 east 67th street,1920,25,6,-73.959084,40.764839,1.5204991,0.64436352,0.36909541,0.21002398,10065,Second Ave
338 east 78th street,1910,8,5,-73.954231,40.77198,2.060472,0.66673297,0.34921148,0.34921148,10075,Second Ave
34 east 64th street,1920,,,-73.968582,40.766457,1.078703,0.28334597,0.19635378,0.19635378,10065,Madison Ave
34 east 75th street,1930,,,-73.963463,40.773472,1.6348317,0.20008202,0.24668498,0.24668498,10021,Madison Ave
340 east 64th street,1965,300,34,-73.960487,40.762959,1.3788261,0.77858001,0.37717324,0.36350304,10065,Second Ave
340 east 72nd street,1930,33,16,-73.957222,40.76815,1.7485429,0.74937552,0.49834093,0.06959375,10021,Second Ave
340 east 74th street,1957,119,13,-73.955818,40.769321,1.8808953,0.74254042,0.46913642,0.21748045,10021,Second Ave
340 east 80th street,1961,440,21,-73.953568,40.773453,2.2052519,0.68910235,0.49461269,0.29701617,10075,Second Ave
340 east 93rd street,1980,367,30,-73.94651,40.781311,2.8608,0.80529904,0.49026307,0.18268359,10128,Second Ave
343 east 74th street,1987,149,25,-73.955772,40.769539,1.8697106,0.73135573,0.45795169,0.20567438,10021,Second Ave
343 east 78th street,1910,12,4,-73.954033,40.772121,2.0648217,0.67046118,0.35356107,0.35356107,10075,Second Ave
343 east 92nd street,1920,15,5,-73.947121,40.781029,2.7967987,0.73384118,0.5263027,0.21748045,10128,Second Ave
344 east 84th street,1901,3,3,-73.951088,40.775768,2.3854499,0.69158787,0.42004797,0.12800278,,Second Ave
344 east 87th street,1925,20,5,-73.949768,40.777821,2.5352008,0.7083649,0.35915345,0.15969279,10028,Second Ave
345 east 61st street,1900,15,5,-73.961693,40.76123,1.2241043,0.62385821,0.273404,0.273404,10065,Second Ave
345 east 69th street,1963,133,18,-73.957626,40.766079,1.6373172,0.64622766,0.38711521,0.10998297,10021,Second Ave
345 east 73rd street,1961,143,13,-73.955841,40.768761,1.8206221,0.78417242,0.51325387,0.15845005,10021,Second Ave
345 east 77th street,1920,60,6,-73.954224,40.77137,2.0294034,0.66921842,0.31814283,0.31814283,10075,Second Ave
345 east 80th street,1973,328,31,-73.953423,40.773701,2.1965525,0.68040317,0.48591349,0.28831694,10075,Second Ave
345 east 81st street,1963,215,20,-73.951981,40.773869,2.2356992,0.72017097,0.52505994,0.22742242,10028,Second Ave
345 east 86th street,1971,90,22,-73.949806,40.777271,2.485491,0.65865511,0.31317186,0.076428846,10028,Second Ave
345 east 93rd street,1974,309,32,-73.946312,40.78157,2.8521008,0.79722124,0.48218524,0.17460574,10128,Second Ave
348 east 78th street,1910,10,5,-73.953972,40.771881,2.0741422,0.68040317,0.36350304,0.36350304,10075,Second Ave
348 east 89th street,1915,14,5,-73.9487,40.779011,2.6439409,0.67978179,0.46727231,0.26719028,10128,Second Ave
35 east 63rd   street,1910,,,-73.968849,40.765816,1.0389352,0.24295674,0.13794474,0.13794474,10065,Madison Ave
35 east 68th street,1910,8,5,-73.966759,40.769112,1.2713286,0.18392633,0.15347907,0.15347907,10065,Madison Ave
35 east 75th street,1959,76,17,-73.963608,40.77367,1.6180546,0.18330495,0.26284066,0.26284066,10021,Madison Ave
35 east 76th street,1930,60,40,-73.962837,40.774189,1.6671431,0.13173102,0.21313085,0.21313085,,Madison Ave
35 east 85th street,1959,154,16,-73.95887,40.780128,2.1319299,0.14043024,0.20629574,0.20629574,10028,Madison Ave
350 east 62nd street,1977,93,6,-73.96125,40.76165,1.2899698,0.68972373,0.33926952,0.33926952,10065,Second Ave
350 east 72nd street,1988,36,22,-73.957222,40.768162,1.7615917,0.76242435,0.51201111,0.083263949,10021,Second Ave
350 east 77th street,1920,80,6,-73.954407,40.77108,2.0306461,0.67046118,0.32000697,0.32000697,10021,Second Ave
350 east 78th street,1920,5,4,-73.953911,40.771851,2.0784917,0.68475276,0.36723128,0.36723128,10075,Second Ave
350 east 82nd street,1998,148,18,-73.951881,40.774441,2.2953508,0.77920139,0.52940959,0.18641183,10028,Second Ave
353 east 72nd street,1975,138,35,-73.956497,40.768269,1.7758833,0.77671593,0.52568132,0.11495396,10021,Second Ave
359 east 68th street,1984,20,11,-73.958069,40.76548,1.5913355,0.69966573,0.34113362,0.18206221,10065,Second Ave
36 east 69th street,1903,10,6,-73.966347,40.769531,1.3247666,0.136702,0.19883928,0.19883928,10065,Madison Ave
36 east 72nd street,1927,21,14,-73.964943,40.77142,1.4807312,0.28458872,0.34859011,0.34859011,10021,Madison Ave
360 east 72nd street,1963,460,34,-73.956337,40.76778,1.8001168,0.80094945,0.55053622,0.12116768,10021,Second Ave
360 east 88th street,1988,163,46,-73.94902,40.778278,2.612251,0.74751139,0.43620366,0.23612164,10128,Second Ave
360 east 89th street,2017,82,34,-73.948227,40.778809,2.6675532,0.70339394,0.49088445,0.28955969,,Second Ave
363 east 76th street,1963,210,20,-73.954361,40.770611,1.9859073,0.64809179,0.37468776,0.32373521,10021,Second Ave
37 east 67th street,1910,10,6,-73.967056,40.768421,1.2303181,0.15782867,0.19448967,0.19448967,10065,Madison Ave
37 east 74th street,1910,7,4,-73.963852,40.772968,1.5838791,0.24917047,0.29701617,0.29701617,,Madison Ave
37 east 83rd street,1920,9,5,-73.959862,40.77887,2.0250537,0.23612164,0.31192911,0.31192911,10028,Madison Ave
370 east 76th street,1966,369,19,-73.955017,40.77066,1.9828004,0.6449849,0.3715809,0.32062835,10021,Second Ave
38 east 85th street,1925,60,12,-73.95903,40.779961,2.1275802,0.136702,0.21064536,0.21064536,10028,Madison Ave
389 east 89th street,2002,156,33,-73.948227,40.77903,2.6569898,0.69407332,0.48032114,0.28023911,10128,Second Ave
39 east 79th street,1925,20,14,-73.961746,40.776329,1.8231076,0.13110964,0.27091852,0.27091852,10075,Madison Ave
399 east 72nd street,1961,165,20,-73.955658,40.76783,1.833671,0.83388221,0.58346897,0.15472181,10021,York Ave
399 east 78th street,1910,35,7,-73.952858,40.771629,2.1381435,0.74440455,0.42750445,0.42750445,10075,York Ave
4 east 62nd street,1910,12,6,-73.971039,40.765781,1.0066239,0.090720423,0.29018107,0.29018107,10065,Madison Ave
4 east 70th street,1938,36,13,-73.967331,40.770771,1.386904,0.10128376,0.32622069,0.32622069,10021,Madison Ave
4 east 72nd street,1929,18,15,-73.966438,40.772041,1.4981297,0.19573241,0.43744642,0.43744642,10021,Madison Ave
4 east 82nd street,1920,9,5,-73.961792,40.77861,2.0194614,0.18330495,0.441796,0.441796,10028,Madison Ave
4 east 88th street,1922,35,9,-73.958893,40.782478,2.3214486,0.14726534,0.33554128,0.33554128,10128,Madison Ave
4 east 94th street,1963,1,7,-73.956223,40.786282,2.6209502,0.15223633,0.34113362,0.34113362,,Madison Ave
4 east 95th street,1923,37,9,-73.955688,40.78688,2.6700387,0.10190513,0.29142383,0.29142383,10128,Madison Ave
40 east 61st street,1928,36,20,-73.969772,40.76442,0.91466069,0.14975083,0.1777126,0.1777126,10065,Madison Ave
40 east 62nd street,1911,11,9,-73.969353,40.76506,0.99046814,0.19448967,0.18641183,0.18641183,,Madison Ave
40 east 66th street,1929,33,13,-73.967972,40.767761,1.1688021,0.16342103,0.25538421,0.25538421,10065,Madison Ave
40 east 72nd street,1930,6,8,-73.964851,40.77121,1.4900519,0.29390931,0.33926952,0.33926952,,Madison Ave
40 east 74th street,1930,7,5,-73.963814,40.772701,1.593821,0.25911242,0.28707421,0.28707421,10021,Madison Ave
40 east 78th street,1958,100,17,-73.962448,40.775452,1.7727764,0.18206221,0.20815986,0.20815986,10075,Madison Ave
40 east 80th street,1974,41,26,-73.961189,40.776711,1.8777884,0.16466378,0.3169001,0.3169001,10075,Madison Ave
40 east 83rd street,1912,30,11,-73.960052,40.778721,2.020704,0.23177204,0.31627873,0.31627873,10028,Madison Ave
40 east 84th street,1963,57,17,-73.959602,40.779369,2.0753849,0.18330495,0.26346204,0.26346204,10028,Madison Ave
40 east 86th street,1963,57,,-73.959106,40.780899,2.17729,0.1230318,0.19076143,0.19076143,10028,Madison Ave
40 east 94th street,1984,210,32,-73.954651,40.785629,2.5936098,0.24233536,0.25103459,0.25103459,10128,Madison Ave
400 east 67th street,2005,128,30,-73.958382,40.764488,1.5758013,0.69966573,0.42501897,0.24730635,10065,York Ave
400 east 70th street,1984,216,40,-73.957024,40.766361,1.7292804,0.73011297,0.47969976,0.20132476,10021,York Ave
400 east 77th street,1964,159,18,-73.953247,40.77071,2.0921619,0.73197711,0.38152286,0.38152286,10021,York Ave
400 east 85th street,1962,192,20,-73.949677,40.776001,2.4929473,0.69842297,0.42688307,0.19014005,10028,York Ave
400 east 90th street,1999,128,23,-73.947227,40.779209,2.7545455,0.69158787,0.57787663,0.34361914,10128,York Ave
401 east 60th street,1999,218,38,-73.961052,40.7603,1.2383958,0.73508394,0.30633676,0.30633676,,York Ave
401 east 65th street,1962,147,16,-73.958862,40.763321,1.4863236,0.77671593,0.48591349,0.35604659,10065,York Ave
401 east 74th street,1962,236,20,-73.954453,40.768978,1.9579455,0.81959063,0.54618663,0.278375,10021,York Ave
401 east 84th street,1986,88,28,-73.949928,40.77552,2.4463444,0.75186104,0.48094249,0.18827593,10028,York Ave
401 east 86th street,1963,229,19,-73.949272,40.776989,2.5563273,0.72887021,0.38400835,0.14726534,10028,York Ave
401 east 89th street,1963,197,19,-73.947662,40.77879,2.7129133,0.7499969,0.53624469,0.30385128,,York Ave
402 east 74th street,1937,42,6,-73.954338,40.768711,1.9616737,0.82269752,0.55115759,0.28210321,10021,York Ave
402 east 90th street,1910,82,12,-73.946922,40.779072,2.7750506,0.71271455,0.59900331,0.3647458,10128,York Ave
403 east 62nd street,1985,54,19,-73.960022,40.761398,1.3471361,0.74689001,0.3964358,0.3964358,10065,York Ave
403 east 87th street,1910,24,6,-73.948372,40.777439,2.6116297,0.78479379,0.43558228,0.20256752,10128,York Ave
403 east 90th street,1920,15,5,-73.946953,40.779308,2.7644873,0.7015298,0.58781862,0.35356107,10128,York Ave
404 east 66th street,1959,158,13,-73.958328,40.763672,1.5459753,0.73694807,0.49336997,0.31627873,10065,York Ave
404 east 76th street,1999,180,31,-73.953751,40.769958,2.0449376,0.70712215,0.43371817,0.36598855,10021,York Ave
404 east 79th street,1986,208,32,-73.952278,40.771999,2.1996596,0.71333593,0.48902035,0.4032709,10075,York Ave
405 east 63rd street,1957,154,13,-73.959427,40.76194,1.4030596,0.80281359,0.41694111,0.41694111,10065,York Ave
405 east 82nd street,1910,55,5,-73.950668,40.774151,2.3574882,0.84133869,0.59154683,0.24854909,10028,York Ave
406 east 73rd street,1910,8,5,-73.954933,40.768139,1.9051288,0.86867911,0.59713918,0.22680105,10021,York Ave
407 east 87th street,1920,20,5,-73.948212,40.77737,2.6209502,0.79473573,0.44552425,0.2118881,10128,York Ave
407 east 91st street,1901,35,5,-73.946022,40.779751,2.8347025,0.77423042,0.65865511,0.32497793,10128,York Ave
408 east 73rd street,1910,20,5,-73.954849,40.768101,1.9094784,0.8730287,0.60148883,0.23115066,10021,York Ave
408 east 79th street,2004,33,20,-73.95211,40.771931,2.2139511,0.72762746,0.50269055,0.41694111,10075,York Ave
41 east 75th street,1920,12,4,-73.96328,40.77367,1.6360744,0.20132476,0.24544223,0.24544223,10021,Madison Ave
410 east 73rd street,1910,7,5,-73.954773,40.76807,1.913828,0.87737828,0.60583842,0.23550026,10021,York Ave
411 east 68th   street,2003,,,-73.957291,40.765018,1.6460164,0.75434649,0.39581442,0.21872321,10065,York Ave
414   east 74 street,1910,,,-73.954033,40.76865,1.9815576,0.84258145,0.57042015,0.30136576,10021,York Ave
414 east 74 street,1910,,,-73.954575,40.768047,1.9815576,0.84258145,0.57042015,0.30136576,10021,York Ave
414 east 88th street,1910,19,5,-73.947639,40.77774,2.6843302,0.81959063,0.50766152,0.27464676,10128,York Ave
415 east 80th street,1959,79,5,-73.951469,40.772831,2.2655251,0.74937552,0.55550724,0.35728931,10075,York Ave
415 east 85th street,1959,98,12,-73.948868,40.775928,2.5327153,0.73819083,0.46727231,0.22990791,10028,York Ave
416 east 83rd street,1930,22,5,-73.949852,40.774422,2.4364026,0.84320283,0.57104152,0.22804379,10028,York Ave
417 east 78th street,1910,16,4,-73.95208,40.771301,2.1816397,0.78790063,0.47100052,0.47100052,10075,York Ave
417 east 87 street,1920,,,-73.947861,40.777157,2.6439409,0.81772649,0.46851504,0.2348789,10128,York Ave
417 east 87th   street,1920,,,-73.947861,40.777157,2.6439409,0.81772649,0.46851504,0.2348789,10128,York Ave
417 east 90th street,1985,71,8,-73.94632,40.779049,2.7999055,0.73694807,0.62385821,0.38960069,10128,York Ave
418 east 83rd street,1930,22,5,-73.949768,40.77438,2.4413736,0.84755242,0.57601255,0.2323934,10028,York Ave
419 east 78th street,1910,16,4,-73.952003,40.771271,2.1866107,0.79225022,0.47597152,0.47597152,10075,York Ave
419 east 84th street,1869,4,5,-73.949387,40.77528,2.4792771,0.78541511,0.51387525,0.22183007,10028,York Ave
419 east 87th street,1920,20,5,-73.947739,40.777168,2.6495333,0.82269752,0.47348604,0.24047124,10128,York Ave
42 east 73rd street,1920,1,4,-73.964462,40.772141,1.5323051,0.2982589,0.34796873,0.34796873,10021,Madison Ave
42 east 75th street,1910,2,4,-73.963249,40.7733,1.6149478,0.21623771,0.22990791,0.22990791,10021,Madison Ave
420 east 64th street,1956,494,13,-73.958588,40.761559,1.4440702,0.84444553,0.45857307,0.45857307,10065,York Ave
420 east 72nd street,1962,191,19,-73.955269,40.767319,1.8628755,0.86370808,0.6132949,0.18454771,10021,York Ave
420 east 85th street,1925,7,4,-73.948929,40.775681,2.5376863,0.7431618,0.4716219,0.2348789,10028,York Ave
420 east 86th street,1935,48,6,-73.948967,40.776531,2.5706191,0.74378318,0.39829993,0.16155691,10028,York Ave
421 east 78th street,1910,16,4,-73.95192,40.771229,2.1909602,0.79722124,0.48032114,0.48032114,10075,York Ave
421 east 84th street,1922,7,5,-73.949318,40.775249,2.4836268,0.78914338,0.51822484,0.22555831,10028,York Ave
422 east 72nd street,1990,199,44,-73.955559,40.76746,1.8902159,0.89104849,0.64001393,0.21126673,10021,York Ave
424 east 77th street,1910,20,5,-73.952522,40.770439,2.1393864,0.77920139,0.42874718,0.42874718,10021,York Ave
425 east 63rd street,1956,496,13,-73.958588,40.761559,1.4440702,0.84444553,0.45857307,0.45857307,10065,York Ave
425 east 78th street,1910,35,7,-73.951721,40.771149,2.2040091,0.81027007,0.49336997,0.49336997,10075,York Ave
425 east 79th street,1955,186,14,-73.951401,40.771969,2.2549617,0.75993884,0.54432249,0.44925249,10075,York Ave
425 east 86th street,1929,94,16,-73.948227,40.776569,2.5936098,0.76615256,0.42129073,0.18454771,10028,York Ave
429 east 74th street,2007,11,7,-73.953613,40.76873,2.002063,0.86308676,0.59030408,0.32187107,10021,York Ave
430 east 77th street,1960,37,6,-73.952187,40.770309,2.1555421,0.79535711,0.44428152,0.44428152,10021,York Ave
430 east 87th street,1925,28,5,-73.947693,40.776939,2.6600966,0.83326083,0.48404935,0.25041321,10028,York Ave
431 east 82nd street,1910,14,5,-73.949638,40.773708,2.4202468,0.90409732,0.65430552,0.31130773,10028,York Ave
432 east 85th street,1910,7,5,-73.948479,40.775501,2.5631626,0.76863807,0.49709818,0.2597338,10028,York Ave
435 east 65th street,1963,120,14,-73.957573,40.762791,1.5627525,0.85314476,0.56234235,0.43247542,10065,York Ave
435 east 76th street,1900,26,9,-73.952362,40.76976,2.118881,0.78106552,0.50766152,0.4399319,10021,York Ave
435 east 77th street,1962,87,12,-73.952293,40.77058,2.1449788,0.78479379,0.43433955,0.43433955,10075,York Ave
435 east 85th street,1958,70,4,-73.948219,40.77562,2.5706191,0.77609456,0.50455469,0.26719028,10028,York Ave
435 east 86th street,1910,60,9,-73.947983,40.77647,2.6085227,0.7816869,0.43620366,0.19946066,10028,York Ave
436 east 66th street,1910,10,5,-73.957191,40.763222,1.6118408,0.80219221,0.55923545,0.38152286,10065,York Ave
437-49 east 86 street,1961,153,,-73.95858,40.780796,2.6259212,0.79846394,0.45360211,0.21685909,10028,Madison Ave
437-49east 86 street,1961,153,,-73.947769,40.776222,2.6259212,0.79846394,0.45360211,0.21685909,10028,York Ave
439 east 88th street,1915,32,5,-73.946999,40.777699,2.7166417,0.85190201,0.5399729,0.30695814,10128,York Ave
44 east 65th street,1920,8,5,-73.96801,40.766949,1.1383549,0.23177204,0.23674302,0.23674302,10065,Madison Ave
44 east 67th street,1941,46,13,-73.967003,40.768169,1.2116768,0.16963476,0.18268359,0.18268359,10065,Madison Ave
44 east 86th street,1960,54,,-73.958977,40.780842,2.1692123,0.13110964,0.18330495,0.18330495,10028,Madison Ave
440 east 62nd street,1960,147,19,-73.959724,40.760956,1.4359924,0.83761042,0.48653486,0.48653486,10065,York Ave
440 east 79th street,1956,219,16,-73.951508,40.771671,2.2580686,0.77174497,0.546808,0.46167994,10075,York Ave
444 east 75th street,1963,156,19,-73.95256,40.768799,2.0934048,0.87489283,0.60211021,0.41445562,10021,York Ave
444 east 84th street,1964,95,12,-73.948959,40.774841,2.5196664,0.82580435,0.55426449,0.26221928,10028,York Ave
444 east 86th street,1973,315,37,-73.947884,40.776009,2.6302707,0.80281359,0.45795169,0.22120869,10028,York Ave
444 east 87th street,1905,42,5,-73.947212,40.776741,2.6837089,0.85687298,0.50766152,0.27464676,10028,York Ave
445 e 78th street,1910,,,-73.9515,40.770981,2.2189221,0.82518297,0.5082829,0.5082829,10075,York Ave
445 east 78 street,1910,,,-73.9515,40.770981,2.2189221,0.82518297,0.5082829,0.5082829,10075,York Ave
445 east 78th   street,1910,,,-73.9515,40.770981,2.2189221,0.82518297,0.5082829,0.5082829,10075,York Ave
445 east 86th street,1961,153,16,-73.947647,40.776329,2.6339991,0.80716318,0.46167994,0.22493693,10028,York Ave
446 east 86th street,1959,91,14,-73.947502,40.775921,2.6495333,0.82269752,0.47721425,0.24047124,10028,York Ave
448 east 84th street,1910,20,5,-73.948723,40.774769,2.527123,0.83326083,0.56172097,0.26967576,10028,York Ave
448 east 88th street,1920,14,5,-73.946678,40.777328,2.7421179,0.87675691,0.56544918,0.33243442,10128,York Ave
45 east 62nd street,1915,22,9,-73.969101,40.765179,0.9600209,0.205053,0.17646986,0.17646986,10065,Madison Ave
45 east 66th street,1907,33,10,-73.967911,40.767941,1.1638311,0.15845005,0.26097655,0.26097655,10065,Madison Ave
45 east 72nd street,1959,48,18,-73.9646,40.771599,1.4875664,0.29142383,0.34237638,0.34237638,10021,Madison Ave
45 east 80th street,1987,50,27,-73.961273,40.776958,1.8759243,0.16342103,0.31814283,0.31814283,10028,Madison Ave
45 east 82nd street,1912,20,11,-73.960381,40.77824,1.9728584,0.2597338,0.36536717,0.36536717,10028,Madison Ave
45 east 85th street,1925,45,9,-73.958344,40.779881,2.1132886,0.17833398,0.16901338,0.16901338,10028,Madison Ave
45 east 89th street,1969,251,38,-73.9571,40.782871,2.3543813,0.19386829,0.28831694,0.28831694,10128,Madison Ave
45 east end avenue,1951,104,20,-73.946587,40.771751,2.5445213,1.0457703,0.85128063,0.53251642,10028,York Ave
450 east 63rd street,1950,503,12,-73.958847,40.761429,1.4415847,0.85003793,0.46416545,0.46416545,,York Ave
450 east 83rd street,2005,120,27,-73.949013,40.773918,2.4960542,0.9295736,0.65927649,0.31379324,10028,York Ave
451 east 84th street,1922,8,5,-73.948448,40.774872,2.5364435,0.84196007,0.57104152,0.278375,10028,York Ave
451 east 86 street,1920,,,-73.947472,40.776108,2.6433196,0.81586242,0.47100052,0.23425752,10028,York Ave
455 east 86th street,1986,141,39,-73.948051,40.776482,2.6464264,0.81896925,0.47410738,0.23674302,10028,York Ave
46 east 92nd street,1920,8,4,-73.95575,40.784451,2.4842482,0.22555831,0.36039618,0.36039618,10128,Madison Ave
460 east 79th street,1957,118,20,-73.950821,40.771381,2.2860303,0.85625166,0.57476979,0.54556525,10075,York Ave
47 east 67th street,1910,8,5,-73.966721,40.768269,1.2017349,0.18019809,0.17274162,0.17274162,10065,Madison Ave
47 east 87th street,1948,61,15,-73.958008,40.781509,2.233835,0.21002398,0.2118881,0.2118881,10128,Madison Ave
47 east 88th street,1930,59,16,-73.957367,40.782059,2.2835448,0.22245143,0.2597338,0.2597338,10128,Madison Ave
48 east 83rd street,1920,6,4,-73.959831,40.77861,2.0275393,0.2392285,0.30882224,0.30882224,10028,Madison Ave
49 east 86th street,1930,47,18,-73.958488,40.780891,2.1760473,0.15161495,0.16217828,0.16217828,10028,Madison Ave
49 east 96th street,1929,64,19,-73.953903,40.787289,2.6868157,0.1298669,0.15907142,0.15907142,10029,Madison Ave
490 east end avenue,1913,,,-73.943604,40.776546,2.9148595,1.015323,0.756832,0.52257448,10128,York Ave
5 east 75th street,1920,8,6,-73.964844,40.774181,1.6509874,0.11371121,0.33243442,0.33243442,10021,Madison Ave
5 east 88th street,1930,,,-73.958862,40.782608,2.3251767,0.14291573,0.33926952,0.33926952,10128,Madison Ave
50 east 72nd street,1928,48,15,-73.964569,40.771252,1.4552549,0.30571538,0.32746342,0.32746342,10021,Madison Ave
50 east 77th street,1930,42,15,-73.962822,40.77478,1.7212025,0.16342103,0.15969279,0.15969279,10021,Madison Ave
50 east 79th street,1958,97,20,-73.961884,40.776039,1.8224863,0.13048828,0.26159793,0.26159793,10075,Madison Ave
50 east 80th street,1916,8,5,-73.961151,40.77668,1.8895944,0.17709123,0.305094,0.305094,10075,Madison Ave
50 east 83rd street,1920,8,4,-73.959778,40.778591,2.0368598,0.24792773,0.29950166,0.29950166,10028,Madison Ave
50 east 89th street,1973,210,30,-73.956818,40.782391,2.355624,0.19448967,0.28769559,0.28769559,10128,Madison Ave
50 east end avenue,1910,,,-73.946846,40.772144,2.5668907,1.0681398,0.8550089,0.51014704,10028,York Ave
500 east 83rd street,1965,189,21,-73.948303,40.773762,2.5420358,0.94821477,0.6766749,0.33367717,10028,York Ave
500 east 85th street,1965,189,,-73.947304,40.775085,2.6315136,0.8369891,0.56544918,0.32870618,10028,York Ave
500a east 87th street,1963,90,16,-73.946259,40.776329,2.7309332,0.90782559,0.55861408,0.32497793,10128,York Ave
501 east 79th street,1961,137,20,-73.950073,40.77142,2.3226912,0.83263946,0.61391628,0.52133173,10075,York Ave
502 park avenue,1927,122,31,-73.96994,40.762989,0.78852201,0.28148186,0.093827285,0.093827285,,Madison Ave
505 east 79th street,1963,209,19,-73.949539,40.771191,2.3413324,0.85128063,0.63255745,0.5399729,10075,York Ave
505 east 82nd street,1950,54,6,-73.948387,40.773201,2.4941902,0.9780407,0.72824883,0.3852511,10028,York Ave
505 east 83rd street,1910,16,5,-73.947899,40.773811,2.5457642,0.95194304,0.68102449,0.33678403,10028,York Ave
507 east 80th street,1925,16,8,-73.949097,40.771999,2.3991201,0.88297063,0.68972373,0.49088445,10028,York Ave
508 east 78th street,1910,384,6,-73.950111,40.77026,2.3295264,0.93516594,0.61826587,0.61826587,10075,York Ave
509 east 77th street,1900,286,6,-73.950462,40.769779,2.255583,0.89539814,0.54494387,0.54494387,10075,York Ave
509 east 83rd street,1925,15,5,-73.947739,40.77375,2.5550847,0.9612636,0.69096649,0.346726,10028,York Ave
509 east 88th street,1910,20,5,-73.945442,40.777031,2.8086047,0.94386518,0.63255745,0.39954266,10128,York Ave
51 east 78th street,1920,21,5,-73.961899,40.77544,1.7914176,0.2007034,0.18951869,0.18951869,10075,Madison Ave
51 east 90th street,1928,38,9,-73.956444,40.783321,2.3910422,0.13297376,0.35169697,0.35169697,10128,Madison Ave
510 east 80th street,1986,91,15,-73.949203,40.771599,2.3972561,0.88110656,0.68785959,0.48902035,10075,York Ave
510 east 84th street,1910,24,5,-73.947403,40.77422,2.6116297,0.91776752,0.64622766,0.35418245,10028,York Ave
510 east 86th street,1958,94,21,-73.946678,40.775558,2.7011073,0.87365007,0.52878821,0.29204518,10028,York Ave
510 park avenue,1925,28,14,-73.969719,40.763439,0.81959063,0.25041321,0.10004101,0.10004101,,Madison Ave
511 east 82nd street,1905,9,4,-73.948181,40.773121,2.5059962,0.98984677,0.74005491,0.39705718,10028,York Ave
512 east 82nd street,1920,20,5,-73.948257,40.772911,2.5097244,0.99357498,0.74378318,0.40078542,10028,York Ave
512 east 83rd street,1910,20,5,-73.947777,40.773548,2.5594344,0.96561325,0.69407332,0.35107559,10028,York Ave
514 east 82nd street,1900,15,5,-73.948174,40.772881,2.5159383,0.99978876,0.7499969,0.40699914,10028,York Ave
515 east 72nd street,1985,325,40,-73.953117,40.766762,1.9977133,0.998546,0.74813277,0.31876421,10021,York Ave
515 east 79th street,1981,163,30,-73.94883,40.77092,2.3947706,0.9047187,0.68599552,0.59403235,10075,York Ave
515 east 85th street,1962,82,13,-73.946922,40.775101,2.6501548,0.85563028,0.58409035,0.346726,10028,York Ave
515 east 88th street,1920,69,5,-73.945236,40.776951,2.820411,0.95504987,0.64374214,0.41072738,10128,York Ave
515 east 89th street,1942,70,6,-73.944641,40.777519,2.8657711,0.90285456,0.68910235,0.45670897,10128,York Ave
515 park avenue,1998,57,42,-73.969231,40.763401,0.79846394,0.2665689,0.091341794,0.091341794,,Lexington Ave
516 east 78th street,1910,384,6,-73.949738,40.7701,2.3295264,0.93516594,0.61826587,0.61826587,10075,York Ave
516 east 82nd street,1920,15,5,-73.94809,40.77285,2.5202878,1.0041384,0.75434649,0.41134876,10028,York Ave
517 east 77th street,1900,286,6,-73.950081,40.76963,2.255583,0.89539814,0.54494387,0.54494387,10075,York Ave
517 east 87th street,1925,9,5,-73.945503,40.776241,2.7837498,0.95691401,0.60770255,0.37468776,10128,York Ave
519 east 81st street,1910,20,5,-73.948357,40.772339,2.4724422,0.95815676,0.76428849,0.46540818,10028,York Ave
519 east 86th street,1939,36,6,-73.946281,40.775749,2.712292,0.88483477,0.5399729,0.3032299,10128,York Ave
519 east 87th street,1910,,,-73.94548,40.776146,2.7868567,0.96064228,0.61143076,0.37779462,10128,York Ave
52 east 72nd street,1986,17,18,-73.964363,40.77116,1.4372351,0.32373521,0.30944362,0.30944362,10021,Madison Ave
52 east 78th street,1920,47,13,-73.962013,40.77528,1.7907963,0.20008202,0.19014005,0.19014005,10075,Madison Ave
52 east end avenue,1988,81,40,-73.946892,40.772301,2.5718617,1.0737321,0.84941655,0.50517601,10028,York Ave
520 east 72nd street,1964,242,18,-73.952637,40.766209,1.9964706,0.99792463,0.74751139,0.42626169,10021,York Ave
520 east 76th street,1964,102,14,-73.950844,40.768879,2.2183006,0.88048518,0.60708117,0.53935152,10021,York Ave
520 east 81st street,1964,163,14,-73.94825,40.77206,2.4817626,0.96747732,0.77360904,0.47535014,10028,York Ave
520 east 86th street,1929,46,16,-73.946251,40.775391,2.7278264,0.90099049,0.55612862,0.31876421,10028,York Ave
520 east 90th street,1942,68,6,-73.944298,40.777981,2.9266655,0.86681497,0.75372511,0.49212721,10128,York Ave
520 park avenue,2015,35,54,-73.969467,40.76379,0.83885318,0.23115066,0.096312776,0.096312776,,Madison Ave
521 east 81st street,1910,20,5,-73.94828,40.772308,2.4767916,0.96250635,0.76863807,0.4697578,10028,York Ave
521 east 83rd street,1925,15,5,-73.947273,40.773548,2.5830464,0.98922539,0.71892828,0.37468776,10028,York Ave
521 east 88th street,1920,16,5,-73.944962,40.776829,2.837188,0.97244835,0.66114062,0.42812583,10128,York Ave
521 park avenue,1912,24,12,-73.968987,40.76363,0.82766849,0.23736438,0.091341794,0.091341794,10065,Lexington Ave
522 east 88th street,1910,16,5,-73.945007,40.77663,2.8427804,0.97741932,0.66611159,0.4330968,10128,York Ave
523 east 84th street,1910,60,4,-73.94696,40.774269,2.6290281,0.93516594,0.66362607,0.3715809,10028,York Ave
524 east 72nd street,1988,130,50,-73.952148,40.765999,2.0418308,1.0426635,0.79225022,0.36288169,10021,York Ave
525 east 80th street,1981,68,13,-73.948387,40.77153,2.4525583,0.93578732,0.74254042,0.54432249,10028,York Ave
525 east 82nd street,1962,94,13,-73.947517,40.772839,2.5482495,1.0321001,0.78230828,0.43931052,10028,York Ave
525 east 84th street,1910,60,4,-73.946877,40.774231,2.6290281,0.93516594,0.66362607,0.3715809,10028,York Ave
525 east 86th street,1962,138,21,-73.946121,40.775681,2.7303119,0.90347594,0.55861408,0.32124969,10128,York Ave
525 east 89th street,1942,70,6,-73.944481,40.777451,2.9018106,0.93889421,0.72452062,0.49274859,10128,York Ave
525 park avenue,1915,48,15,-73.968803,40.76387,0.84506691,0.21934457,0.1093616,0.1093616,10065,Lexington Ave
527 east 72nd street,1910,20,5,-73.952003,40.766289,2.0548797,1.0557122,0.80529904,0.37593052,10021,York Ave
527 east 80 street,1910,8,,-73.948647,40.771603,2.4351597,0.91901028,0.725142,0.52692407,10028,York Ave
527 east 84th street,1910,8,,-73.9468,40.774189,2.6333776,0.93951559,0.66797566,0.37593052,10028,York Ave
529 east 84th street,1885,8,5,-73.946716,40.774158,2.6383486,0.94448656,0.67294669,0.38090149,10028,York Ave
529 east 87th street,1910,6,5,-73.945267,40.776138,2.7980413,0.97182697,0.62199414,0.38897935,10128,York Ave
529 east 88th street,1920,20,5,-73.944649,40.776699,2.855829,0.99108952,0.67978179,0.446767,10128,York Ave
53 east 66th street,1924,25,10,-73.967598,40.767818,1.1812296,0.17584848,0.24295674,0.24295674,10065,Madison Ave
530 east 72nd street,1962,128,20,-73.952103,40.765991,2.0610933,1.061926,0.81089145,0.38214424,10021,York Ave
530 east 76th street,1986,209,39,-73.949921,40.768509,2.2661464,0.9283309,0.65306276,0.58719724,10021,York Ave
530 east 84th street,1920,80,5,-73.946571,40.773861,2.6551256,0.9612636,0.68972373,0.39767855,10028,York Ave
530 east 85th street,1925,11,5,-73.946457,40.774658,2.6843302,0.88980573,0.61826587,0.38090149,10028,York Ave
530 east 86th street,1928,46,15,-73.945801,40.7752,2.7526813,0.92584538,0.58036214,0.34361914,10028,York Ave
530 east 90th street,1942,68,6,-73.943672,40.77771,2.9446855,0.88545614,0.77174497,0.51014704,10128,York Ave
530 park avenue,1941,105,19,-73.969193,40.764011,0.87116456,0.19883928,0.12862416,0.12862416,10065,Madison Ave
531 east 72nd street,1910,20,5,-73.951843,40.766232,2.0610933,1.061926,0.81089145,0.38214424,10021,York Ave
531 east 83rd street,1915,15,5,-73.946869,40.77338,2.6079013,1.0140803,0.7431618,0.39892131,10028,York Ave
531 east 84th street,1885,8,5,-73.94664,40.774132,2.6414554,0.94759345,0.67605352,0.38338697,10028,York Ave
531 east 87th street,1910,20,5,-73.94519,40.776112,2.8030124,0.97617656,0.62696511,0.39395031,10128,York Ave
531 east 88th street,1905,25,5,-73.944527,40.776661,2.8632855,0.998546,0.68723828,0.45422348,10128,York Ave
533 east 84th street,1885,8,5,-73.946564,40.774101,2.6464264,0.95256442,0.68102449,0.38897935,10028,York Ave
534-538 east 84th street,1910,32,5,-73.946381,40.773788,2.6712813,0.97741932,0.70587945,0.41383424,10028,York Ave
535 east 72nd street,1910,20,5,-73.951683,40.766151,2.0610933,1.061926,0.81089145,0.38214424,10021,York Ave
535 east 86th street,1960,143,21,-73.945374,40.77536,2.7607591,0.93330187,0.58844,0.35169697,10128,York Ave
535 park avenue,1910,31,15,-73.968513,40.764259,0.87613559,0.21872321,0.14043024,0.14043024,10065,Lexington Ave
541 east 72nd street,1910,10,5,-73.951538,40.76609,2.0648217,1.0656543,0.8164838,0.38587248,10021,York Ave
55 east 65th street,1910,36,7,-73.967499,40.76696,1.0929947,0.25724831,0.21126673,0.21126673,10065,Madison Ave
55 east 72nd street,1924,29,15,-73.964371,40.7715,1.4521481,0.30882224,0.32435656,0.32435656,10021,Madison Ave
55 east 76th street,1883,21,7,-73.962677,40.77412,1.6627934,0.16839202,0.17709123,0.17709123,10021,Madison Ave
55 east 86th street,1924,46,16,-73.958229,40.780781,2.1909602,0.1665279,0.14726534,0.14726534,10028,Madison Ave
55 east 87th street,1963,120,14,-73.957489,40.7813,2.2257571,0.24792773,0.173363,0.173363,10128,Madison Ave
55 east 93rd street,1980,29,6,-73.955002,40.78516,2.5432787,0.29142383,0.30198714,0.30198714,10128,Madison Ave
55 east end avenue,1951,183,15,-73.946579,40.772148,2.5699975,1.0712466,0.85128063,0.50704014,10028,York Ave
550 park avenue,1917,36,17,-73.968849,40.764851,0.9183889,0.22928654,0.15099357,0.15099357,10065,Madison Ave
554 east 82nd street,2015,4,6,-73.947189,40.772469,2.5737259,1.0575764,0.80778456,0.4647868,10028,York Ave
555 park avenue,1913,23,12,-73.968117,40.764542,0.90099049,0.24357811,0.13794474,0.13794474,10065,Lexington Ave
56 east 87th street,1923,33,6,-73.957611,40.781139,2.2611754,0.23736438,0.18454771,0.18454771,10028,Madison Ave
563 park avenue,1910,20,13,-73.968132,40.764771,0.92335987,0.26532617,0.1161967,0.1161967,10065,Lexington Ave
565 park avenue,1913,28,13,-73.967979,40.764999,0.93516594,0.27713224,0.10376925,0.10376925,10065,Lexington Ave
57 east 73rd street,1926,5,5,-73.963829,40.772129,1.5031006,0.3280848,0.31876421,0.31876421,,Madison Ave
57 east 75th street,1920,9,8,-73.962868,40.773361,1.6006562,0.23052928,0.21561635,0.21561635,10021,Madison Ave
570 park avenue,1916,52,13,-73.968269,40.765442,0.9612636,0.27278262,0.10749748,0.10749748,10065,Madison Ave
575 park avenue,1927,129,16,-73.967857,40.76516,0.94883615,0.29080245,0.090099044,0.090099044,10065,Lexington Ave
580 park avenue,1923,53,14,-73.968147,40.765598,1.0028956,0.31441459,0.11495396,0.11495396,10065,Madison Ave
59 east 72nd street,1930,19,5,-73.964172,40.77142,1.445313,0.31565735,0.31752148,0.31752148,10021,Madison Ave
59 east 73rd street,1910,10,4,-73.963783,40.77211,1.5006151,0.32994893,0.31627873,0.31627873,10021,Madison Ave
59 east 75th street,1910,9,4,-73.962799,40.77335,1.5969279,0.23425752,0.2118881,0.2118881,10021,Madison Ave
6 east 68th street,1920,14,6,-73.9683,40.769539,1.2968049,0.10066238,0.23612164,0.23612164,10065,Madison Ave
6 east 76th street,1920,7,5,-73.964546,40.77467,1.7044255,0.059651781,0.28521007,0.28521007,10021,Madison Ave
6 east 79th street,1920,8,5,-73.963158,40.776588,1.8572831,0.052816682,0.33864814,0.33864814,10075,Madison Ave
60 east 79th street,1920,8,5,-73.96151,40.77589,1.8436129,0.15161495,0.24047124,0.24047124,10075,Madison Ave
60 east 88th street,1986,18,15,-73.957169,40.781712,2.3102639,0.24917047,0.23363616,0.23363616,10128,Madison Ave
60 east 96th street,1929,83,17,-73.953659,40.786839,2.7011073,0.14415847,0.14477985,0.14477985,10128,Madison Ave
60 east end avenue,1973,123,42,-73.946747,40.772491,2.567512,1.0507413,0.80157083,0.45795169,10028,York Ave
605 east 82nd street,1953,159,20,-73.945778,40.772099,2.5538418,1.1271701,0.87862104,0.53438056,10028,York Ave
605 park avenue,1955,105,20,-73.966957,40.76638,1.0445275,0.305094,0.16279966,0.16279966,10065,Lexington Ave
61 east 77th street,1920,51,10,-73.962303,40.774792,1.7441933,0.18641183,0.136702,0.136702,10075,Madison Ave
61 east 82nd street,1925,4,5,-73.9599,40.778042,2.0026844,0.28955969,0.33554128,0.33554128,10028,Madison Ave
61 east 86th street,1910,46,7,-73.957993,40.780689,2.2064946,0.18268359,0.13173102,0.13173102,10028,Madison Ave
610 park avenue,1925,64,15,-73.967407,40.766602,1.0656543,0.29018107,0.1777126,0.1777126,,Madison Ave
62 east 87th street,1923,15,5,-73.957451,40.781059,2.2257571,0.24792773,0.173363,0.173363,10028,Madison Ave
620 park avenue,1924,15,14,-73.967209,40.766972,1.0911305,0.2665689,0.20318888,0.20318888,10065,Madison Ave
625 park avenue,1929,32,13,-73.966713,40.76672,1.0743535,0.27526811,0.19262555,0.19262555,10065,Lexington Ave
63 east 79th street,1902,10,6,-73.961327,40.77615,1.8442342,0.15223633,0.25041321,0.25041321,10075,Madison Ave
630 park avenue,1917,34,13,-73.966988,40.767181,1.1122572,0.24544223,0.20381026,0.20381026,10065,Madison Ave
635 park avenue,1913,16,13,-73.966492,40.767029,1.0961015,0.25414145,0.1913828,0.1913828,10065,Lexington Ave
64 east 80th street,1921,9,5,-73.960739,40.776501,1.8734388,0.20194614,0.28023911,0.28023911,10075,Madison Ave
64 east 86th street,1917,38,14,-73.95816,40.780418,2.2071159,0.18268359,0.13110964,0.13110964,10028,Madison Ave
64 east 91st street,1920,7,4,-73.955833,40.783649,2.4587719,0.20008202,0.38462973,0.38462973,10128,Madison Ave
64 east 94th street,1962,46,7,-73.954437,40.785519,2.6079013,0.25662693,0.23674302,0.23674302,10128,Madison Ave
640 park avenue,1914,12,12,-73.966904,40.767521,1.1346266,0.21561635,0.20318888,0.20318888,10065,Madison Ave
646 park avenue,1962,99,,-73.966621,40.767601,1.14519,0.24233536,0.1708775,0.1708775,10065,Madison Ave
65 east 76th street,1949,50,13,-73.96244,40.774029,1.6491232,0.18206221,0.16279966,0.16279966,10021,Madison Ave
65 east 96th street,1924,60,16,-73.953163,40.786968,2.6774952,0.1640424,0.12489592,0.12489592,10029,Madison Ave
650 park avenue,1962,99,21,-73.966537,40.767811,1.1601028,0.22742242,0.15596455,0.15596455,10065,Madison Ave
655 park avenue,1924,51,11,-73.965851,40.76791,1.1725304,0.23860712,0.11495396,0.11495396,10065,Lexington Ave
66 east 79th street,1926,20,15,-73.961472,40.775719,1.8181366,0.15907142,0.2323934,0.2323934,10075,Madison Ave
66 east 83rd street,1912,22,5,-73.959343,40.778419,2.0107622,0.28086048,0.26719028,0.26719028,10028,Madison Ave
660 park avenue,1926,12,14,-73.966331,40.768101,1.1911715,0.22804379,0.12489592,0.12489592,10065,Madison Ave
67 east 80th street,1915,5,4,-73.960518,40.776649,1.8610114,0.20629574,0.27526811,0.27526811,10028,Madison Ave
68 east 86th street,1912,26,12,-73.957962,40.780331,2.1729405,0.19262555,0.12116768,0.12116768,10028,Madison Ave
68 east 93rd street,1890,8,5,-73.954742,40.78484,2.5258801,0.31441459,0.27899635,0.27899635,10128,Madison Ave
7 east 78th street,1920,5,6,-73.96331,40.776039,1.7945244,0.11433259,0.27588949,0.27588949,10075,Madison Ave
7 east 85th street,1928,38,9,-73.960152,40.780651,2.1611345,0.063380018,0.28396735,0.28396735,10028,Madison Ave
7 east 88th street,1910,9,5,-73.958733,40.782631,2.3202057,0.14850809,0.33429852,0.33429852,10128,Madison Ave
7 gracie square,1929,43,15,-73.945221,40.773289,2.6880584,1.0414207,0.77174497,0.47783563,10028,York Ave
70 east 77th street,1917,30,9,-73.962402,40.774609,1.7448146,0.18703319,0.13608062,0.13608062,10021,Madison Ave
70 east 93rd street,1925,10,5,-73.954674,40.784809,2.5215306,0.31876421,0.27464676,0.27464676,10128,Madison Ave
70 east 96th street,1929,74,17,-73.953339,40.786709,2.6781166,0.16342103,0.12551729,0.12551729,10128,Madison Ave
700 park avenue,1960,48,20,-73.965347,40.76947,1.2893485,0.20940261,0.15596455,0.15596455,10021,Madison Ave
71 east 77th street,1928,38,10,-73.962051,40.774689,1.7069108,0.20132476,0.12116768,0.12116768,10075,Madison Ave
710 park avenue,1948,84,20,-73.965149,40.769699,1.3117179,0.23177204,0.17833398,0.17833398,10021,Madison Ave
715 park avenue,1969,76,18,-73.964729,40.769581,1.2961836,0.2460636,0.16839202,0.16839202,10021,Lexington Ave
72 east 93rd street,1920,9,5,-73.954597,40.784779,2.5178022,0.32249245,0.27091852,0.27091852,10128,Madison Ave
720 park avenue,1928,29,17,-73.964882,40.770081,1.3427864,0.25476283,0.20878124,0.20878124,10021,Madison Ave
73 east 79th street,1928,14,14,-73.960983,40.776138,1.8144084,0.173363,0.22866517,0.22866517,10075,Madison Ave
730 park avenue,1928,41,19,-73.964912,40.770409,1.3632917,0.27526811,0.22990791,0.22990791,10021,Madison Ave
733 park avenue,1972,30,30,-73.964149,40.77018,1.3452719,0.28707421,0.21748045,0.21748045,10021,Lexington Ave
737 park avenue,1940,60,20,-73.964119,40.770401,1.36702,0.30820087,0.2392285,0.2392285,10021,Lexington Ave
740 park avenue,1930,33,19,-73.964417,40.770721,1.3924963,0.30447266,0.25911242,0.25911242,10021,Madison Ave
75 east end avenue,1962,198,20,-73.946114,40.77277,2.6004448,1.1016939,0.82083338,0.4765929,10028,York Ave
750 park avenue,1951,68,17,-73.964218,40.770969,1.4117589,0.32373521,0.278375,0.278375,10021,Madison Ave
755 park avenue,1914,45,12,-73.963509,40.770802,1.3962245,0.33740538,0.26843303,0.26843303,10021,Lexington Ave
760 park avenue,1924,13,14,-73.964043,40.771358,1.4471771,0.35853207,0.31317186,0.31317186,10021,Madison Ave
765 park avenue,1927,48,14,-73.963425,40.77116,1.4167298,0.35915345,0.28955969,0.28955969,10021,Lexington Ave
770 park avenue,1931,40,19,-73.963699,40.771702,1.4658183,0.37220228,0.30571538,0.30571538,10021,Madison Ave
773-81lexington avenue    10021,1960,131,,-73.958458,40.770309,1.7230666,0.58471173,0.31130773,0.16777064,10021,Second Ave
778 park avenue,1930,18,20,-73.963432,40.772079,1.4894304,0.34859011,0.28272459,0.28272459,10021,Madison Ave
781 fifth avenue,1928,169,38,-73.97271,40.764389,0.90906829,0.086370811,0.28955969,0.28955969,10022,Madison Ave
784 park avenue,1930,64,19,-73.96331,40.772499,1.5074502,0.33057031,0.26470479,0.26470479,10021,Madison Ave
785 fifth avenue,1963,58,17,-73.972519,40.764641,0.92460263,0.070836492,0.29701617,0.29701617,10022,Madison Ave
785 park avenue,1940,82,20,-73.962952,40.771881,1.4788671,0.35169697,0.26346204,0.26346204,10021,Lexington Ave
791 park avenue,1925,29,14,-73.962769,40.772141,1.4962655,0.33429852,0.2460636,0.2460636,10021,Lexington Ave
795 fifth avenue,1930,77,41,-73.972054,40.765282,0.97617656,0.019883927,0.30820087,0.30820087,,Madison Ave
799 park avenue,1960,75,21,-73.96257,40.7724,1.528577,0.30260852,0.21375223,0.21375223,10021,Lexington Ave
8 east 68th street,1920,14,6,-73.968224,40.769501,1.2930766,0.10439062,0.2323934,0.2323934,10065,Madison Ave
8 east 76th street,1910,5,5,-73.964478,40.774639,1.7000759,0.064622767,0.28023911,0.28023911,10021,Madison Ave
8 east 83rd street,1963,78,15,-73.960793,40.779011,2.0530155,0.1708775,0.37655187,0.37655187,10028,Madison Ave
8 east 92nd street,1920,5,5,-73.957077,40.784988,2.5215306,0.14788671,0.4399319,0.4399319,10128,Madison Ave
8 east 96th street,1928,39,15,-73.955078,40.787441,2.7160203,0.057166293,0.23177204,0.23177204,10128,Madison Ave
80 east end avenue,1958,152,20,-73.946442,40.773338,2.6408341,1.0513626,0.78044415,0.44925249,10028,York Ave
800 park avenue,1925,17,15,-73.962936,40.77272,1.5434899,0.29453069,0.22804379,0.22804379,10021,Madison Ave
812 fifth avenue,1963,30,19,-73.97113,40.766289,1.0613047,0.073943354,0.30695814,0.30695814,10065,Madison Ave
812 park avenue,1927,42,14,-73.962761,40.772991,1.5677234,0.27091852,0.20443162,0.20443162,10021,Madison Ave
815 park avenue,1917,49,14,-73.96228,40.772812,1.5540532,0.27713224,0.18765457,0.18765457,10021,Lexington Ave
820 park avenue,1926,12,15,-73.962547,40.773361,1.5969279,0.24109262,0.17460574,0.17460574,10021,Madison Ave
823 park avenue,1920,11,13,-73.962029,40.773159,1.5776653,0.25289869,0.1640424,0.1640424,,Lexington Ave
825 fifth avenue,1927,64,23,-73.970741,40.767101,1.1228205,0.13483788,0.30944362,0.30944362,10065,Madison Ave
828 fifth avenue,1920,3,6,-73.970459,40.767139,1.1315198,0.14415847,0.31814283,0.31814283,,Madison Ave
829 park avenue,1930,52,12,-73.961899,40.773319,1.5963066,0.2348789,0.14540122,0.14540122,10021,Lexington Ave
830 park avenue,1913,38,13,-73.962288,40.773628,1.6161904,0.22183007,0.15534319,0.15534319,10021,Madison Ave
834 fifth avenue,1931,24,16,-73.970383,40.767578,1.1694235,0.11308984,0.35604659,0.35604659,10065,Madison Ave
838 fifth avenue,1951,18,12,-73.970177,40.76783,1.1806082,0.10128376,0.36785266,0.36785266,,Madison Ave
840 park avenue,1912,18,13,-73.962044,40.773972,1.6509874,0.22431555,0.12116768,0.12116768,10021,Madison Ave
841 madison avenue,1927,11,15,-73.966202,40.770229,1.330359,0.14291573,0.27029714,0.27029714,10021,Madison Ave
845 fifth avenue,1920,17,11,-73.969749,40.768452,1.2178906,0.064001389,0.39829993,0.39829993,10065,Madison Ave
850 park avenue,1924,51,12,-73.961853,40.774239,1.6640362,0.23736438,0.10811885,0.10811885,10021,Madison Ave
851 fifth avenue,1949,106,,-73.969604,40.768883,1.2589011,0.055302173,0.35728931,0.35728931,10065,Madison Ave
857 fifth avenue,1962,18,19,-73.968987,40.769218,1.2961836,0.031690009,0.32000697,0.32000697,10065,Madison Ave
860 fifth avenue,1950,157,21,-73.968758,40.76944,1.3173102,0.052816682,0.29888028,0.29888028,10065,Madison Ave
860 park avenue,1924,15,15,-73.961578,40.774601,1.6957262,0.24668498,0.1025265,0.1025265,10075,Madison Ave
863 park avenue,1920,23,12,-73.960999,40.774288,1.6758423,0.25662693,0.090099044,0.090099044,10075,Lexington Ave
870 fifth avenue,1949,94,20,-73.968422,40.769798,1.3483789,0.047845699,0.28893831,0.28893831,10065,Madison Ave
875 fifth avenue,1940,121,19,-73.968208,40.770161,1.3726124,0.023612164,0.31379324,0.31379324,10065,Madison Ave
875 park avenue,1912,46,13,-73.96096,40.77462,1.6926193,0.273404,0.10625474,0.10625474,10075,Lexington Ave
876 park avenue,1917,24,13,-73.961357,40.774891,1.7218238,0.26221928,0.12924553,0.12924553,10075,Madison Ave
880 fifth avenue,1948,162,20,-73.968163,40.770618,1.4074092,0.0205053,0.34796873,0.34796873,10021,Madison Ave
884 fifth avenue,1927,19,13,-73.967911,40.770969,1.4210794,0.0341755,0.36226031,0.36226031,10021,Madison Ave
885 park avenue,1927,36,15,-73.96067,40.775021,1.7299017,0.24730635,0.14415847,0.14415847,10075,Lexington Ave
888 park avenue,1926,74,15,-73.961098,40.775242,1.7460574,0.23798576,0.15285769,0.15285769,10075,Madison Ave
891 park avenue,1931,15,15,-73.960571,40.77515,1.7367368,0.24047124,0.15099357,0.15099357,10075,Lexington Ave
895 park avenue,1930,37,21,-73.960167,40.775318,1.7528925,0.22431555,0.16714926,0.16714926,10075,Lexington Ave
898 park avenue,1924,13,14,-73.960892,40.775539,1.7727764,0.21126673,0.17957672,0.17957672,10075,Madison Ave
9 east 96th street,1927,47,16,-73.954811,40.78767,2.7091851,0.064001389,0.22493693,0.22493693,10029,Madison Ave
9 east 97th street,1930,25,6,-73.954353,40.788311,2.7613804,0.075186104,0.278375,0.278375,10029,Madison Ave
90 east end avenue,2000,43,21,-73.94606,40.77346,2.67066,1.0221581,0.75123966,0.45733035,10028,York Ave
900 fifth avenue,1960,52,20,-73.96727,40.771839,1.5006151,0.11371121,0.441796,0.441796,10021,Madison Ave
900 park avenue,1973,124,28,-73.960663,40.775719,1.8131657,0.22928654,0.21996595,0.21996595,,Madison Ave
901 lexington avenue,1907,17,11,-73.964256,40.767361,1.2042204,0.32994893,0.04287472,0.04287472,10065,Lexington Ave
907 fifth avenue,1915,44,12,-73.966873,40.772209,1.5204991,0.13359514,0.46167994,0.46167994,10021,Madison Ave
91 east end avenue,1940,6,5,-73.945732,40.773319,2.6663103,1.0258864,0.75496787,0.46167994,10028,York Ave
910 fifth avenue,1959,54,16,-73.966522,40.772419,1.4999938,0.19386829,0.43931052,0.43931052,10021,Madison Ave
910 park avenue,1925,25,14,-73.960373,40.77626,1.8255931,0.241714,0.2323934,0.2323934,10075,Madison Ave
911 park avenue,1926,40,14,-73.95993,40.776039,1.8088161,0.25538421,0.22307281,0.22307281,10075,Lexington Ave
912 fifth avenue,1925,30,14,-73.966621,40.772751,1.5683448,0.18144085,0.50331193,0.50331193,10021,Madison Ave
920 fifth avenue,1922,27,14,-73.966248,40.772911,1.5838791,0.18019809,0.48777759,0.48777759,10021,Madison Ave
923 fifth avenue,1950,97,20,-73.96624,40.773258,1.608734,0.15534319,0.46292269,0.46292269,10021,Madison Ave
925 park avenue,1908,31,14,-73.959641,40.776421,1.8299427,0.25352007,0.24419948,0.24419948,10028,Lexington Ave
927 fifth avenue,1917,12,12,-73.966019,40.773571,1.6279966,0.13608062,0.410106,0.410106,10021,Madison Ave
929 park avenue,1913,36,12,-73.959511,40.7766,1.8516908,0.27526811,0.26594752,0.26594752,10028,Lexington Ave
930 fifth avenue,1940,140,20,-73.965622,40.773701,1.6547157,0.1093616,0.41694111,0.41694111,10021,Madison Ave
930 park avenue,1916,22,13,-73.959923,40.776859,1.8784097,0.27278262,0.28521007,0.28521007,10028,Madison Ave
935 park avenue,1924,31,15,-73.959419,40.77673,1.8610114,0.28458872,0.27526811,0.27526811,10028,Lexington Ave
936 fifth avenue,1955,30,18,-73.965363,40.7742,1.6857842,0.078292966,0.3852511,0.3852511,10021,Madison Ave
940 park avenue,1926,28,15,-73.959846,40.777191,1.9001578,0.29515204,0.30695814,0.30695814,10028,Madison Ave
941 park avenue,1927,37,15,-73.959198,40.777031,1.8827593,0.30695814,0.29701617,0.29701617,10028,Lexington Ave
943 lexington avenue,1924,21,11,-73.963364,40.76862,1.2999117,0.310065,0.068972372,0.068972372,10021,Lexington Ave
944 fifth avenue,1925,13,14,-73.965279,40.774578,1.7125033,0.051573936,0.35915345,0.35915345,10021,Madison Ave
944 park avenue,1929,23,15,-73.959602,40.777321,1.9100997,0.30571538,0.3169001,0.3169001,10028,Madison Ave
949 park avenue,2009,4,13,-73.959099,40.777149,1.8945655,0.31938559,0.30633676,0.30633676,10028,Lexington Ave
950 fifth avenue,1926,1,14,-73.96476,40.775009,1.7528925,0.019262554,0.31876421,0.31876421,10021,Madison Ave
950 park avenue,1921,24,13,-73.959503,40.77766,1.928741,0.32373521,0.30198714,0.30198714,10028,Madison Ave
953 fifth avenue,1926,7,14,-73.964767,40.775269,1.7678055,0.034796875,0.3032299,0.3032299,10021,Madison Ave
955 fifth avenue,1938,32,18,-73.964546,40.775299,1.7758833,0.042253345,0.29577342,0.29577342,10021,Madison Ave
955 lexington avenue,1924,29,12,-73.963188,40.768848,1.3166888,0.32684207,0.08574944,0.08574944,10021,Lexington Ave
955 park avenue,1915,38,13,-73.959023,40.777279,1.9045074,0.32932755,0.2963948,0.2963948,10028,Lexington Ave
956 fifth avenue,1925,22,15,-73.964523,40.775459,1.7852038,0.051573936,0.28645283,0.28645283,10021,Madison Ave
960 fifth avenue,1927,68,12,-73.964378,40.77581,1.755378,0.086992182,0.23612164,0.23612164,,Madison Ave
960 park avenue,1915,38,13,-73.959442,40.777851,1.9492463,0.34424049,0.28148186,0.28148186,10028,Madison Ave
965 fifth avenue,1938,47,19,-73.964233,40.776031,1.8274572,0.078914337,0.30882224,0.30882224,10075,Madison Ave
969 fifth avenue,1926,12,16,-73.963989,40.776081,1.835535,0.072700612,0.3169001,0.3169001,10075,Madison Ave
969 park avenue,1911,76,12,-73.958603,40.777851,1.9417897,0.36536717,0.25911242,0.25911242,10028,Lexington Ave
970 park avenue,1912,40,15,-73.959007,40.77813,1.9734799,0.32497793,0.25724831,0.25724831,10028,Madison Ave
971 madison avenue,1928,15,15,-73.963501,40.774189,1.6422881,0.12241043,0.23860712,0.23860712,,Madison Ave
975 park avenue,1929,63,15,-73.958504,40.777981,1.9616737,0.32932755,0.2392285,0.2392285,10028,Lexington Ave
980 fifth avenue,1966,45,25,-73.963158,40.777039,1.9181776,0.036039617,0.39954266,0.39954266,10075,Madison Ave
983 park avenue,1927,59,15,-73.958267,40.77829,1.9815576,0.30944362,0.21934457,0.21934457,10028,Lexington Ave
985 park avenue,2006,7,16,-73.958183,40.778412,1.9946065,0.2963948,0.20629574,0.20629574,10028,Lexington Ave
988 fifth avenue,1926,13,13,-73.962997,40.77747,1.9411684,0.058409039,0.42253345,0.42253345,10075,Madison Ave
993 fifth avenue,1930,19,17,-73.96273,40.777828,1.9747225,0.070215121,0.45608759,0.45608759,10028,Madison Ave
993 park avenue,1915,49,13,-73.958076,40.778591,2.0126264,0.278375,0.18827593,0.18827593,10028,Lexington Ave
995 fifth avenue,1926,37,17,-73.96273,40.778091,1.9877714,0.08388532,0.46913642,0.46913642,10028,Madison Ave
east 97th street,1930,25,,-73.949364,40.786083,2.7781575,0.37779462,0.12738141,0.12738141,10029,Lexington Ave
